"","Name","Address","Zip","Latitude","Longitude"
"1","KEN HING FOOD MARKET INC","247 GRAND STREET, New York, NY","10002",40.71819208,-73.99420253
"2","TIN DUC FOOD MARKET INC","129 EAST BROADWAY, New York, NY","10002",40.71384051,-73.99199407
"3","VESEY STREET EDIBLES INC","20 VESEY STREET, New York, NY","10007",40.71175472,-74.00934999
"4","LIME TREE MARKET INC","400 E 9TH ST, New York, NY","10009",40.72810011,-73.98482667
"5","SWEET OLIVE INC","345 1ST AVE, New York, NY","10010",40.73503118,-73.97993495
"6","A & R NEWS & CANDY CORP","110 W HOUSTON STREET, New York, NY","10012",40.72742625,-74.00063718
"7","DEAN & DELUCA NEW YORK INC","560 BROADWAY, New York, NY","10012",40.72397706,-73.99790475
"8","UNITED GROCERY & DELI CORP","177 HUDSON STREET, New York, NY","10013",40.72253308,-74.00820128
"9","TRIBECA VILLAGE FARM INC","13 HUDSON STREET, New York, NY","10013",40.71621065,-74.00925954
"10","ERRAND GROCERY & DELI INC","301 W 13TH STREET, New York, NY","10014",40.73911481,-74.0030618
"11","GNB DELI INC","106 7TH AVE SOUTH, New York, NY","10014",40.73336303,-74.00301635
"12","W & J GROCERY CORP","11 EIGHTH AVE, New York, NY","10014",40.73759028,-74.00484934
"13","YOON HAE CHO","37A BEDFORD STREET, New York, NY","10014",43.17216774,-77.56652635
"14","C & P FOOD CORP","180 LEXINGTON AVENUE, New York, NY","10016",40.74453218,-73.98115174
"15","M & N SMOKE & CARD INC","129 E 28TH STREET, New York, NY","10016",40.74269986,-73.98246101
"16","M & A VARIETY STORE INC","248 E 44TH STREET, New York, NY","10017",40.75155778,-73.97242288
"17","MIDLANTIC CONVENIENCE INC","40 W 39TH STREET, New York, NY","10018",40.75204805,-73.98354103
"18","HADAR 94 FOOD INC","500 EAST 77TH STREET, New York, NY","10021",40.77000383,-73.95140417
"19","K & B GROCERY INC","1107 1ST AVENUE, New York, NY","10065",40.76068976,-73.96126163
"20","M & M FRUIT INC","1366 YORK AVENUE STORE #1, New York, NY","10021",40.76737694,-73.95325905
"21","MINI DELI INC","1266 2ND AVENUE, New York, NY","10021",40.76515507,-73.96093082
"22","TALA FOOD MARKET INC","1114 LEXINGTON AVE, New York, NY","10021",40.77413888,-73.95956267
"23","809 LEX GROCERY INC","809 LEXINGTON AVENUE, New York, NY","10021",40.76428532,-73.96658875
"24","DESSUK DELI INC","133 E 55TH STREET, New York, NY","10022",40.7596871,-73.97008442
"25","PRAKASHCHANDRA M SHAH","967 1ST AVENUE, New York, NY","10022",40.75586228,-73.96478953
"26","JOSEPHINE ZINGONE AS ADMX OF EST OF RALPH &","471 COLUMBUS AVE, New York, NY","10024",40.78422355,-73.97373101
"27","2451 BROADWAY MARKET INC","2451 BROADWAY, New York, NY","10024",40.79125259,-73.97447229
"28","ABEYSENIAN GROCERY INC","100 ST NICHOLAS AVE, New York, NY","10026",40.80238721,-73.95250384
"29","LORENZO A CORONA","2215A 7TH AVE, New York, NY","10027",43.19854291,-75.72863093
"30","NEOFYTOS DELI INC","1118 MADISON AVE, New York, NY","10028",40.7793169,-73.95998724
"31","H & F FRUIT CO INC","1391 MADISON AVE, New York, NY","10029",40.78757946,-73.95384175
"32","JUAN MANUEL REYES","3675 BROADWAY, New York, NY","10031",40.8309315,-73.94736749
"33","LUNA BROTHERS INC","3632 BROADWAY, New York, NY","10031",40.8293137,-73.94812681
"34","MIGUEL HENRIQUEZ","500 W 135TH ST, New York, NY","10031",40.81893927,-73.95231726
"35","4051 ABINADER GROCERY CORP","4051 BROADWAY, New York, NY","10032",40.84288037,-73.93928745
"36","SANTANA MARTE","362 AUDUBON AVENUE, New York, NY","10033",40.8500295,-73.93146282
"37","ORIGINAL SUPERMARKET CORP, THE","4261 BROADWAY, New York, NY","10033",40.85021042,-73.93577305
"38","VICTOR M GUZMAN","64 68 WADSWORTH TERRACE, New York, NY","10040",40.85653503,-73.9309906
"39","PRINCE DELI GROCERY CORP","1461 5TH AVE, New York, NY","10035",40.80195437,-73.94542512
"40","43RD DELI CORP, THE","600 10TH AVENUE, New York, NY","10036",40.76042616,-73.99480317
"41","H J FRUIT AND VEGETABLE INC","97 CATHERINE STREET, New York, NY","10038",40.71030289,-73.99641958
"42","MARIANO PEREZ","123 DYCKMAN ST, New York, NY","10040",40.86234183,-73.92515587
"43","NICHOLAS CONTE","1692 YORK AVENUE, New York, NY","10128",40.7776526,-73.94576114
"44","FIRST ON FIRST DELI INC","1756 1ST AVENUE, New York, NY","10128",40.78004098,-73.94696322
"45","A & BILL GROCERY CORP","4 W 31ST STREET, New York, NY","10001",40.74655426,-73.98614435
"46","RATAN NEWS CORP","171 W 29TH STREET, New York, NY","10001",40.74753403,-73.99202388
"47","AMIGO MINI MART INC","118 DELANCEY STREET, New York, NY","10002",40.71862074,-73.9880039
"48","FEDERICO A PICHARDO","130 ELDRIDGE STREET, New York, NY","10002",40.7187433,-73.9915704
"49","FURCO FOOD CORP","175 CLINTON STREET, New York, NY","10002",40.7154471,-73.98706198
"50","MARIAM FOOD CORP","43 COLUMBIA STREET, New York, NY","10002",40.71676383,-73.98048101
"51","TAN TIN HUNG CORP","121 BOWERY, New York, NY","10002",40.71821894,-73.99483328
"52","545 GRAND FOOD CORP","545 GRAND STREET, New York, NY","10002",40.71417767,-73.98082547
"53","DUAL SPECIALTY STORE INC","91 1ST AVENUE, New York, NY","10003",40.72615536,-73.98641717
"54","EAST VILLAGE FARM & GROCRY INC","69 2ND AVENUE, New York, NY","10003",40.72622784,-73.98947376
"55","GARDEN OF EDEN GOURMET INC","7 E 14TH ST, New York, NY","10003",40.7359072,-73.99325182
"56","NAMDOR INC","25 UNIVERSITY PLACE, New York, NY","10003",40.73169001,-73.99459848
"57","N M & A DELI CORP","169 3RD AVENUE, New York, NY","10003",40.73465838,-73.98608185
"58","PANYA INC OF N Y","4 STUYVESANT STREET 2ND FL, New York, NY","10003",40.72976663,-73.9895823
"59","SMZ IMPEX INC","146 2ND AVENUE, New York, NY","10003",40.72917766,-73.98717275
"60","JAN SERVICES 7TH AVENUE LLC","117 7TH AVENUE SOUTH, New York, NY","10007",40.73383222,-74.00259601
"61","BROTHERS CANDY & GROCERY STORE INC","542 EAST 14TH STREET, New York, NY","10009",40.72994165,-73.97938854
"62","BROS FOOD MARKET INC","188 198 AVENUE C, New York, NY","10009",40.72746858,-73.97628307
"63","F G W J FOOD CORPORATION","409 427 E 14TH STREET, New York, NY","10009",40.73119314,-73.98167701
"64","FUAD MOHAMED HASSAN","79 AVENUE A, New York, NY","10009",40.72519941,-73.98421235
"65","MAN DELL FOOD STORES INC","52 AVENUE A, New York, NY","10009",40.72407091,-73.98487741
"66","BEN ELHASEL DELI LLC","32 AVENUE B, New York, NY","10009",40.7225307,-73.98313182
"67","BROWN & WHITE MARKETS INC","311 E 23RD STREET, New York, NY","10010",40.73780015,-73.98055835
"68","D AGOSTINO SUPERMARKETS INC","341 3RD AVENUE, New York, NY","10010",40.74009436,-73.98211014
"69","NAMDOR INC","2610 FDR DR, New York, NY","10010",0,0
"70","NAMDOR INC","355 1ST AVENUE, New York, NY","10010",40.73548464,-73.97962445
"71","SILVER & WHITE MARKETS INC","278 PARK AVENUE SOUTH, New York, NY","10010",40.73935069,-73.98718414
"72","SILVER STAR ENTERPRISES INC","411 2ND AVENUE, New York, NY","10010",40.73827335,-73.98069013
"73","ALAN RAM FARMS INC","575 AVENUE OF THE AMERICAS, New York, NY","10011",40.73871939,-73.99592232
"74","L & M DELICATESSEN CORP","80 7TH AVENUE, New York, NY","10011",40.73934633,-73.99918194
"75","SON KWAN GROCERY INC","570 AVENUE OF THE AMERICAS, New York, NY","10011",40.73862898,-73.99582352
"76","471 SIXTH AVENUE FOOD CORP","471 6TH AVENUE, New York, NY","10011",40.73563218,-73.99816742
"77","H & H KIM CORP","172 PRINCE STREET, New York, NY","10012",40.72611083,-74.00172225
"78","J W MARKET INC","240 SULLIVAN STREET, New York, NY","10012",40.73006884,-73.99943318
"79","NAMDOR INC","246 MERCER STREET, New York, NY","10012",40.72778011,-73.99584147
"80","BLEECKER FARM CORP","272 BLEECKER ST, New York, NY","10014",40.73144815,-74.0031925
"81","D AGOSTINO SUPERMARKETS INC","790 GREENWICH STREET, New York, NY","10014",40.73715853,-74.00656204
"82","NAMDOR INC","3 SHERIDAN SQUARE, New York, NY","10014",40.73276088,-74.00239818
"83","CLOVER DELICATESSEN INC","621 2ND AVENUE, New York, NY","10016",40.74478523,-73.97595242
"84","GLAMOUR ENTERPRISES INC","335 LEXINGTON AVENUE, New York, NY","10016",40.74951755,-73.97733511
"85","1 EAST ACE DELI CORP","1 E 28TH STREET, New York, NY","10016",40.74469886,-73.98721478
"86","AZOR BAKE SHOP INC","89 EAST 42ND ST/MAIN CONCOURSE, New York, NY","10017",40.75215285,-73.97759563
"87","GRAY & WHITE MARKETS INC","908 2ND AVENUE, New York, NY","10017",40.7538244,-73.9691994
"88","NAMDOR INC","748 2ND AVENUE, New York, NY","10017",40.74851991,-73.97307559
"89","468 470 FOOD CORP","468 470 9TH AVENUE, New York, NY","10018",40.75472434,-73.99524431
"90","NAMDOR INC","907 8TH AVENUE, New York, NY","10019",40.76496348,-73.98421826
"91","ROOSEVELT GOURMET DELI INC","460 W 57TH STREET, New York, NY","10019",40.76858994,-73.98746724
"92","57 MARKET INC","363 W 57TH STREET, New York, NY","10019",40.76751027,-73.98461636
"93","D AGOSTINO SUPERMARKETS INC","1507 YORK AVENUE, New York, NY","10021",40.77222484,-73.94988084
"94","NAMDOR INC","1446 2ND AVE, New York, NY","10021",40.77098746,-73.95666626
"95","JAN SERVICES EAST INC","301 E 64TH STREET, New York, NY","10021",40.76374492,-73.96193694
"96","K & S GROCERY CORP","1321 YORK AVENUE, New York, NY","10021",40.76603536,-73.95440538
"97","NAMDOR INC","1208 1ST AVENUE, New York, NY","10021",40.76358315,-73.95898143
"98","NAMDOR INC","1365 3RD AVENUE, New York, NY","10021",40.77353941,-73.9577297
"99","SING AND SING DELI INC","1211 1ST AVENUE, New York, NY","10065",NA,NA
"100","Z & S DELI INC","1474 YORK AVE, New York, NY","10021",40.77079054,-73.950776
"101","BRONZE & WHITE MARKETS INC","400 W 59TH STREET, New York, NY","10022",40.75955995,-73.96195878
"102","D AGOSTINO SUPERMARKETS INC","966 1ST AVENUE & 53RD STREET, New York, NY","10022",40.75574249,-73.96471323
"103","532 MADISON AVENUE GOURMET FOODS INC","532 MADISON AVENUE, New York, NY","10022",40.76040166,-73.97381243
"104","C P YANG CORP","281 COLUMBUS AVENUE, New York, NY","10023",40.77808273,-73.97820488
"105","COLUMBUS FOODS INC","289 COLUMBUS AVE, New York, NY","10023",40.77834926,-73.97801187
"106","MELNI FOOD CORP","1879 BROADWAY, New York, NY","10023",40.77058613,-73.9823176
"107","ROSAN FOOD CORP","1891 3RD AVENUE, New York, NY","10029",40.79057002,-73.94539949
"108","ANDYS 418 COLUMBUS AVE DELI INC","418 COLUMBUS AVE, New York, NY","10024",40.7826767,-73.97503337
"109","C & N GROCERY STORE INC","295 AMSTERDAM AVE, New York, NY","10024",40.77975684,-73.98069839
"110","COLUMBUS AVENUE FOOD CORP","476 COLUMBUS AVENUE, New York, NY","10024",40.7844237,-73.97374941
"111","NAMDOR INC","251 W 86TH ST, New York, NY","10024",40.7886655,-73.97718588
"112","NAMDOR INC","500 COLUMBUS AVENUE, New York, NY","10024",40.78521234,-73.97317584
"113","WESTSIDE SUPERMARKET","2171 BROADWAY, New York, NY","10024",40.7822056,-73.98109477
"114","ZABARS & CO INC","2245 BROADWAY, New York, NY","10024",40.78474219,-73.97952009
"115","530 FOOD CORP","530 534 AMSTERDAM AVENUE, New York, NY","10024",40.7876091,-73.97514996
"116","HANS FAMILY FRUITS & VEGETABLES CORP","2501 BROADWAY, New York, NY","10025",40.79281145,-73.97333979
"117","103 MANHATTAN GROCERY AVE CORP","62 MANHATTAN AVENUE, New York, NY","10025",40.79639818,-73.96302805
"118","MANI MARKET PLACE INC","697 COLUMBUS AVENUE, New York, NY","10025",40.79143954,-73.96846464
"119","PAUL SAINI DELI GROCERY INC","730 COLUMBUS AVENUE, New York, NY","10025",40.79267755,-73.9677222
"120","RANCHOS FOOD CORP","71 81 W 104TH STREET, New York, NY","10025",40.79761378,-73.96299064
"121","104 BROADWAY FARM INC","2717 BROADWAY, New York, NY","10025",40.79974507,-73.96840672
"122","987 SUPERMARKET INC","987 AMSTERDAM AVE, New York, NY","10025",40.80192608,-73.96453331
"123","NEW WAY FOOD MARKET INC","1902 7TH AVENUE, STORE #1, New York, NY","10026",40.80270114,-73.95308562
"124","CENTRAL PARK NORTH MEAT LLC","37 41 LENOX AVENUE, New York, NY","10026",40.79937442,-73.95177722
"125","A L M SUPERMARKET INC","1225 AMSTERDAM AVENUE, New York, NY","10027",40.80947987,-73.959014
"126","IBRAHIM M YABAI","507 MANHATTAN AVENUE, New York, NY","10027",40.80826794,-73.9545314
"127","LEONEL MINI MARKET INC","273 W 131ST STREET, New York, NY","10027",40.81366317,-73.94760833
"128","MORNINGSIDE SUPERMARKET CORP","1316 AMSTERDAM AVENUE, New York, NY","10027",40.81294089,-73.95665853
"129","560 WEST MEAT & PRODUCE CORP","560 W 125TH STREET, New York, NY","10027",40.81468242,-73.95756749
"130","D AGOSTINO SUPERMARKETS INC","1223 LEXINGTON AVE, New York, NY","10028",40.77763595,-73.95683796
"131","NAMDOR INC","1644 YORK AVENUE, New York, NY","10028",40.77619831,-73.94682934
"132","MADISON PRODUCE CORP","1307 9 MADISON AVE, New York, NY","10028",40.78483701,-73.95579217
"133","ORANGE & WHITE MARKETS INC","1565 1ST AVENUE, New York, NY","10028",40.77401601,-73.95153034
"134","YOUNG CHUN KIM","1578 YORK AVENUE, New York, NY","10028",40.77395562,-73.94847022
"135","EAST HARLEM GROCERY CORP","85 E 110TH STREET, New York, NY","10029",40.79575478,-73.94658361
"136","JORGE MELO","1858 LEXINGTON AVENUE, New York, NY","10029",40.79798631,-73.94216892
"137","MOHAMED M ALOUBAHI","1801 LEXINGTON AVENUE, New York, NY","10029",40.79601901,-73.94343035
"138","NAMDOR INC","1343 LEXINGTON AVENUE, New York, NY","10029",40.78147021,-73.9540371
"139","DOMINGO NUNEZ","2591 8TH AVENUE, New York, NY","10030",40.81846266,-73.94519473
"140","FAMILY GROCERY NO 2 INC","2620 8TH AVE, New York, NY","10030",40.81941317,-73.94433697
"141","STEP 1 DELI GROCERY INC","685 LENOX AVE, New York, NY","10030",40.81997923,-73.93673657
"142","FELIX DIAZ","3518 BROADWAY, New York, NY","10031",40.8256717,-73.95078944
"143","HAMILTON CORNER MEAT MARKET INC","1 HAMILTON PLACE, New York, NY","10031",40.82071244,-73.95439218
"144","RAFAEL H PEGUERO","501 W 134TH STREET, New York, NY","10031",40.81885449,-73.95407372
"145","3011 GROCERY INC","3320 BROADWAY, New York, NY","10031",40.81938104,-73.9553943
"146","3484 BROADWAY MINI MARKET INC","3484 BROADWAY, New York, NY","10031",40.82446488,-73.95167431
"147","3550 FOOD CORP","3550 52 BROADWAY, New York, NY","10031",40.70653656,-74.01263105
"148","756 JOMO FOOD CORP","756 ST NICHOLAS AVENUE, New York, NY","10031",40.82594855,-73.94326519
"149","WASHINGTON HEIGHTS GROCERY CANDY INC","4067 1/2 BROADWAY, New York, NY","10032",40.84360112,-73.93917571
"150","J F MEAT & GROCERY CORP","1016 ST NICHOLAS AVE, New York, NY","10032",40.83516738,-73.93968945
"151","172 FOOD CORP","4081 BROADWAY, New York, NY","10032",40.84410409,-73.9390561
"152","GREAT WAY FOODS INC","4365 BROADWAY, New York, NY","10033",40.85366876,-73.93401601
"153","POLA SUPERMARKET CORP","1331 ST NICHOLAS AVE, New York, NY","10033",40.84647966,-73.93588198
"154","REY'S GROCERY DELI CORP","288 AUDUBON AVENUE, New York, NY","10033",40.84772084,-73.933155
"155","SMILE DELI GROCERY LTD","758 W 181ST STREET, New York, NY","10033",40.8507017,-73.93773221
"156","196 STO DOMINGO GROCERY INC","196 AUDUBON AVE, New York, NY","10033",40.84476934,-73.93531428
"157","2330 MEAT & PRODUCE CORP","2330 1ST AVENUE, New York, NY","10033",40.79905553,-73.93307556
"158","191 FOOD CORP","1617 ST NICHOLAS AVE, New York, NY","10040",40.85549539,-73.92928592
"159","270 MARKET INC","270 W 47TH STREET, New York, NY","10036",40.76004797,-73.98677399
"160","LUCIANO BERROCAL","180 LENOX AVE, New York, NY","10036",40.80391125,-73.94810903
"161","SHISHA DELI INC","637 9TH AVENUE, New York, NY","10036",40.7602248,-73.9913997
"162","SONEL RAMIREZ","767 10TH AVE, New York, NY","10019",40.76588678,-73.99097334
"163","HARLEM UP DELI MARKET INC","585 LENOX AVENUE, New York, NY","10037",40.81708817,-73.9388542
"164","LENOX & 132ND FOOD CORP","448 LENOX AVENUE, New York, NY","10037",40.81233692,-73.94197574
"165","DOWNTOWN FOOD CORP","5 ST JAMES PLACE, New York, NY","10038",40.71113331,-74.00024725
"166","2676 7TH AVENUE GROCERY INC","2626 7TH AVE, New York, NY","10039",40.82633539,-73.93586793
"167","101 MORONTA FOOD CORP","101 DYCKMAN STREET, New York, NY","10040",40.86169933,-73.92474337
"168","NAMDOR INC","686 N MAIN STREET, New York, NY","10044",40.7652889,-73.94657323
"169","ALI ALSAIDI","1726 1ST AVENUE, New York, NY","10128",40.77912306,-73.94762954
"170","K B C FOOD CORP","1721 1ST AVENUE, New York, NY","10128",40.7788984,-73.9478734
"171","K S P SUPERMARKET INC","1486 LEXINGTON AVENUE, New York, NY","10128",40.78586134,-73.95102209
"172","145 FOOD CORP","1407 LEXINGTON AVE, New York, NY","10128",40.78334863,-73.95266112
"173","NAMDOR INC","71 SOUTH END AVE, New York, NY","10280",40.70833442,-74.01760796
"174","NAMDOR INC","315 321 S END AVENUE, New York, NY","10280",40.71039381,-74.01634126
"175","TERRY RAM LTD","41 RIVER TERRACE, New York, NY","10281",40.71778963,-74.01570612
"176","DUANE READE INC","4 AMSTERDAM AVE, New York, NY","10023",40.77053132,-73.9875864
"177","RITE AID OF NEW YORK INC","282 8TH AVENUE, New York, NY","10001",40.74601983,-73.99787169
"178","RITE AID DRUG PALACE INC","408 GRAND STREET, New York, NY","10002",40.71590818,-73.98638294
"179","KMART CORPORATION","770 BROADWAY, New York, NY","10003",40.73110501,-73.99185673
"180","RITE AID OF NEW YORK INC","81 1ST AVENUE, New York, NY","10003",40.72578751,-73.98668088
"181","RITE AID OF NEW YORK INC","501 6TH AVENUE, New York, NY","10011",40.73651138,-73.9975418
"182","RITE AID OF NEW YORK INC","188 9TH AVENUE & 22ND ST, New York, NY","10011",40.74548179,-74.00196752
"183","RITE AID OF NEW YORK INC","542 576 2ND AVE, New York, NY","10016",40.74341182,-73.97655368
"184","RITE AID OF NEW YORK INC","301 W 50TH ST, New York, NY","10019",40.76238914,-73.98612096
"185","RITE AID OF NEW YORK INC","1535 2ND AVENUE, New York, NY","10021",40.77380506,-73.95477714
"186","RITE AID OF NEW YORK INC","741 COLUMBUS AVENUE, New York, NY","10025",40.79284731,-73.9674309
"187","RITE AID OF NEW YORK INC","2833 BROADWAY, New York, NY","10025",40.80403065,-73.9670113
"188","RITE AID OF NEW YORK INC","35 45 W 125TH ST, New York, NY","10027",40.80693105,-73.9433372
"189","RITE AID OF NEW YORK INC","3539 BROADWAY, New York, NY","10031",40.8264208,-73.95064868
"190","RITE AID OF NEW YORK INC","1510 ST NICHOLAS AVENUE, New York, NY","10033",40.85207319,-73.93162475
"191","RITE AID OF NEW YORK INC","4910 BROADWAY, New York, NY","10034",40.86731585,-73.92210346
"192","RITE AID OF NEW YORK INC","2155 3RD AVENUE, New York, NY","10035",40.79893989,-73.93921514
"193","RITE AID OF NEW YORK INC","7 MADISON ST, New York, NY","10038",40.71176784,-74.0004262
"194","RITE AID OF NEW YORK INC","1849 2ND AVENUE, New York, NY","10128",40.78359203,-73.94762555
"195","DA 15 FARM INC","349 E 49TH STREET, New York, NY","10017",40.75379821,-73.96778178
"196","RITE AID OF NEW YORK INC","4046 BROADWAY, New York, NY","10032",40.84270548,-73.93915627
"197","RITE AID OF NEW YORK INC","534 HUDSON STREET, New York, NY","10014",40.73432423,-74.00611672
"198","D AGOSTINO SUPERMARKETS INC","580 582 THIRD AVENUE, New York, NY","10016",40.74840165,-73.97623624
"199","MURAD ALI","127 LUDLOW STREET, New York, NY","10002",NA,NA
"200","RITE AID OF NEW YORK INC","26 GRAND CENTRAL TERMINAL, New York, NY","10017",40.75304348,-73.97997384
"201","WESTERN BEEF RETAIL INC","431 WEST 16TH STREET, New York, NY","10011",40.74297893,-74.00590086
"202","WESTERN BEEF RETAIL INC","75 WEST END AVE, New York, NY","10023",40.77412136,-73.98869152
"203","ASSARY GROCERY CORP","343 ST NICHOLAS AVENUE, New York, NY","10026",40.81213364,-73.95146285
"204","MILLENNIUM DELI GROCERY INC","214 WEST 96TH STREET, New York, NY","10025",40.79416212,-73.97078171
"205","DUANE READE INC","617 W 181ST ST, New York, NY","10033",40.84964996,-73.93434048
"206","BHOJAN INC","270 W 36TH ST, New York, NY","10018",40.75313176,-73.99171592
"207","NAMDOR INC","221 229 8TH AVENUE, New York, NY","10011",40.74443959,-73.99917565
"208","453 HARLEM STREET CORP","453 W 125TH ST, New York, NY","10027",40.81257667,-73.9555039
"209","99 JOHN'S MARKET PLACE INC","99 JOHN STREET, New York, NY","10038",40.70796924,-74.0059802
"210","BATTERY PARK CITY GOURMET MARKET, INC","450 NORTH END AVE, New York, NY","10282",40.71727373,-74.01399544
"211","FADHL N SUHAIL","1536 AMSTERDAM AVE, New York, NY","10031",40.81950407,-73.95186806
"212","NEW FUZHOU SUPERMARKET INC","146 HENRY STREET, New York, NY","10002",40.71333003,-73.99005078
"213","34 MIDTOWN DELI INC","322 EAST  34 STREET, New York, NY","10016",40.74427315,-73.97484283
"214","ST NICK CANDY GROCERY INC","1572 ST NICHOLAS AVE, New York, NY","10040",NA,NA
"215","SHEEN BROTHERS INC","155 AVE B, New York, NY","10009",40.72673909,-73.97990236
"216","MIHYE CORPORATION","790 11TH AVE STORE #4, New York, NY","10019",40.76870268,-73.99240178
"217","425 THIRD AVENUE CORP","425 THIRD AVENUE, New York, NY","10016",40.7429805,-73.98001908
"218","695 LEON BAKERY INC","695 9TH AVE, New York, NY","10036",40.76209862,-73.99004591
"219","14TH STREET CANDY & GROCERY INC","402 E 14TH ST, New York, NY","10009",40.73130954,-73.98246129
"220","GLENDA FOOD CORP.","592 FORT WASHINGTON AVENUE, New York, NY","10033",40.85486671,-73.93687957
"221","L & O GROCERY CORP","1618 MADISON AVENUE, New York, NY","10029",NA,NA
"222","LITTLE HEE'S CORP","212 WEST 44TH STREET, New York, NY","10036",40.75752423,-73.98663622
"223","RITE AID OF NEW YORK INC","210 20 AMSTERDAM AVENUE, New York, NY","10023",40.77712911,-73.98278183
"224","719 BROTHER FAMOUS DELI  CORP","719 9TH AVENUE, New York, NY","10019",40.76286682,-73.98947066
"225","TAN & WHITE SUPERMARKET INC","130 136 BLEECKER STREET, New York, NY","10012",40.72817819,-73.99931426
"226","KYU HWA YOO","28 WEST 32ND STREET, New York, NY","10001",40.74788655,-73.98740283
"227","DUANE READE INC","1279 3RD AVE AKA 200 E 74TH ST, New York, NY","10021",40.77070752,-73.95979782
"228","DUANE READE INC","465 2ND AVE, New York, NY","10006",40.73989672,-73.97950291
"229","ONE PLUS ONE TWO INC","94 AVENUE B, New York, NY","10009",40.72452114,-73.98167352
"230","OSCAR  L  INC","781 9TH AVENUE, New York, NY","10019",40.7647804,-73.98807534
"231","C & S MART INC","373 1ST AVENUE, New York, NY","10010",40.73616463,-73.97911064
"232","WEST END SUPER CORP.","110 WEST END AVENUE, New York, NY","10023",40.77532708,-73.9876724
"233","DUANE READE INC","1524 2ND AVE, New York, NY","10021",40.77341153,-73.95490226
"234","DUANE READE INC","1467 1ST AVE, New York, NY","10021",40.77050139,-73.95408831
"235","DUANE READE INC","155 EAST 34TH ST, New York, NY","10016",40.74623299,-73.97916783
"236","DUANE READE INC","2683 BROADWAY, New York, NY","10025",40.79861954,-73.96910028
"237","URBANO ISIDORO","182 E 109TH STREET, New York, NY","10029",40.79367036,-73.94382726
"238","MANHATTAN TOBACCO & GROCERY CORP","881 9TH AVENUE, New York, NY","10019",40.76802106,-73.9857155
"239","LITTLE M CORP","118 LEXINGTON AVE, New York, NY","10016",40.74264056,-73.98252759
"240","GRAND CENTURY MARKET INC","281 GRAND STREET, New York, NY","10002",40.71771872,-73.9926281
"241","1623 ST NICHOLAS AVE CORP","1623 SAINT NICHOLAS AVE, New York, NY","10040",40.85563905,-73.92909733
"242","D AGOSTINO SUPERMARKETS INC","815 10TH AVE, New York, NY","10019",40.76749751,-73.98971303
"243","NUVE MIGUEL CORP","755 AMSTERDAM AVE AKA 170 W 97, New York, NY","10025",40.79451244,-73.96993636
"244","YEMSANALI GROCERY INC","881 10TH AVE, New York, NY","10019",40.76939932,-73.98842526
"245","DUANE READE INC","380 AMSTERDAM AVE, New York, NY","10024",40.78258741,-73.97880665
"246","GREENWICH VILLAGE FARM INC","33A GREENWICH AVENUE, New York, NY","10014",40.73515571,-74.00032885
"247","117 CORONA MEAT CORP","136 LENOX AVENUE, New York, NY","10026",40.80278344,-73.94893782
"248","FRANK'S GOURMET MARKET INC","807-809 W 187TH STREET, New York, NY","10033",40.85526834,-73.93719246
"249","LM GROCERY CORP","2643 8TH AVENUE, New York, NY","10030",40.8203337,-73.94382337
"250","JOSE GROCERY CORP","1881 AMSTERDAM AVE, New York, NY","10031",40.83026124,-73.94384216
"251","BROADWAY FRUIT MARKET LLC","2345 BROADWAY, New York, NY","10024",40.78839815,-73.97663848
"252","HOLK MARKET INC","1616 3RD AVENUE, New York, NY","10128",40.78184798,-73.95182618
"253","PARAS NEW YORK INC","708 9TH AVENUE, New York, NY","10019",40.76248876,-73.9895904
"254","RIVERDALE MEAT & PRODUCE CORP","5249 BROADWAY, New York, NY","10463",42.90121402,-78.68317388
"255","168 FRUIT & VEGETABLE CORP","168 7TH AVENUE, New York, NY","10011",40.74223921,-73.99708608
"256","1ST & 96TH MANAGEMENT INC","1855 1ST AVE, New York, NY","10028",40.78309239,-73.9449105
"257","NAMDOR INC","307 WEST 26TH STREET, New York, NY","10001",40.74733562,-73.99724639
"258","101 LA ESPERANZA SUPERMARKET CORP","101 AUDOBON AVE, New York, NY","10032",40.8417655,-73.9372992
"259","EL TAPATIO MEXICAN RESTAURANT INC","209 E 116TH STREET, New York, NY","10029",40.79788687,-73.93975381
"260","OWNERS' KIDS FOOD CORP","123 AVE C, New York, NY","10009",40.72462641,-73.9785295
"261","JUAN ROSARIO","2210 5TH AVE, New York, NY","10037",40.81295728,-73.93754481
"262","FARE FARM FOOD CORP","4776 BROADWAY, New York, NY","10034",40.86580136,-73.92632466
"263","553 LA MINA SUPERMARKET INC","553 W 157TH ST, New York, NY","10032",40.83388393,-73.94431959
"264","840 ST NICHOLAS FOOD CORP","840 SAINT NICHOLAS AVE, New York, NY","10031",40.82886266,-73.94215149
"265","A & A DELI GROCERY CORP","203 7TH AVE, New York, NY","10011",NA,NA
"266","VBFS INC","529 BROOME ST, New York, NY","10013",40.72394376,-74.00430857
"267","NEW YORK SUPERMARKET EAST BWY INC","75 85 EAST BROADWAY, New York, NY","10002",40.71365661,-73.99404977
"268","VILLAGE ENTERPRISES LLC","424 6TH AVENUE, New York, NY","10011",40.73430233,-73.99898058
"269","ST NICKS 1633 FOOD CENTER CORP","1633 SAINT NICHOLAS AVE, New York, NY","10040",40.85596544,-73.92885759
"270","7 PARK AVENUE FOODS INC","7 PARK AVENUE, New York, NY","10016",40.74703758,-73.98116577
"271","ALAN FARMLAND LTD","27 COLUMBUS AVENUE, New York, NY","10023",40.77000939,-73.98410043
"272","EASTERN SUPERMARKET INC","335 GRAND STREET, New York, NY","10002",40.71697406,-73.99016295
"273","ADAN S GARCIA","1621A LEXINGTON AVENUE, New York, NY","10029",40.78990651,-73.94790364
"274","765 2ND AVE CORP","765 2ND AVENUE, New York, NY","10017",40.74914827,-73.97276457
"275","SUPER VALUE MEAT MARKET CORP","3461 BROADWAY, New York, NY","10031",40.82397568,-73.95244257
"276","JUAN FERMIN","38 JEFFERSON STREET, New York, NY","10002",40.71334374,-73.98863028
"277","AMSTERDAM GOURMET FOODS, INC","403A AMSTERDAM AVENUE, New York, NY","10024",40.78328578,-73.97813371
"278","NYC GREEN VALLEY GROCERY INC","74 E 116TH STREET, New York, NY","10029",40.79963698,-73.94417566
"279","TUTTI'S GROCERY INC","135B E 50TH STREET, New York, NY","10022",40.75643741,-73.97207046
"280","YORK & GEORGEY INC","108 9TH STREET, New York, NY","10011",40.74301982,-74.00376487
"281","3RD AVE QUICK STOP INC","390 3RD AVENUE, New York, NY","10016",40.74189758,-73.98097531
"282","BETTER FRUIT INC","220 MANHATTAN AVE, New York, NY","10025",40.80071145,-73.95988019
"283","PEACEFUL DELI & GROCERY NY CORP","1525 YORK AVENUE, New York, NY","10028",40.77258407,-73.94962758
"284","ADIL ENTERPRISES, INC","3189 BROADWAY, New York, NY","10027",40.81560181,-73.95857423
"285","BLUE & WHITE MARKETS INC","2941 2947 BROADWAY, New York, NY","10025",40.80748973,-73.96448265
"286","SON'S FREEDOM MARKET INC","1043 1045 LEXINGTON AVENUE, New York, NY","10021",40.77204843,-73.96092803
"287","I D I PROJECTS INC","492 494 BROOME ST, New York, NY","10013",40.72315655,-74.00251811
"288","JUAN R BURGOS","129 POST AVE, New York, NY","10034",40.8645621,-73.91985195
"289","ONE ABINGDON SQUARE ENTERPRISES INC","1 ABINGDON SQ AKA 75 BANK ST, New York, NY","10014",40.73670436,-74.00505512
"290","J & M DELI CORP","839 2ND AVENUE, New York, NY","10017",40.75167292,-73.97092912
"291","QUEENIE'S NEWS & STATIONERY INC","1278 1ST AVENUE, New York, NY","10021",40.76562115,-73.95748575
"292","AZOR BAKE SHOP INC LOWER CONCOURSE","89 EAST 42ND STREET, New York, NY","10017",40.75215285,-73.97759563
"293","AZOR BAKE SHOP INC TRACK 34","89 EAST 42ND STREET, New York, NY","10017",40.75215285,-73.97759563
"294","NONNO GOURMET PRODUCE INC","800 WASHINGTON STREET, New York, NY","10014",40.73874226,-74.00816364
"295","REY FOOD CORP","740 10TH AVE, New York, NY","10019",40.76492448,-73.991512
"296","FIFTH AVENUE DELI INC","554 5TH AVENUE, New York, NY","10036",40.75577119,-73.97924366
"297","BLUE MOON DELI & GROCERY INC","1773 FIRST AVENUE, New York, NY","10128",40.78052261,-73.94677411
"298","AGUA AZUL DELI GROCERY CORP","35 SHERMAN AVE, New York, NY","10040",40.86270467,-73.92819284
"299","1384 BAKE CORP","1384 YORK AVE, New York, NY","10021",40.76789398,-73.952887
"300","RITE AID OF NEW YORK INC","1033 ST NICHOLAS AVENUE, New York, NY","10032",40.83585219,-73.93996032
"301","CARLOS CABRAL","238 42 SHERMAN AVENUE, New York, NY","10034",40.86595796,-73.91972776
"302","VARLEY CORP","584 BROADWAY, New York, NY","10012",40.72474761,-73.99723391
"303","HAMILTON FOOD STORE INC","1129 AMSTERDAM AVENUE, New York, NY","10025",40.80641404,-73.96125804
"304","9TH AVE DELI & GROCERY INC","480 9TH AVE STORE #1, New York, NY","10018",40.7550519,-73.99502283
"305","UNION SQUARE ONE STOP INC","141 4TH AVENUE, New York, NY","10003",40.73370572,-73.98975897
"306","1579 PALMA GROCERY INC","1579 ST NICHOLAS AVENUE, New York, NY","10040",NA,NA
"307","1239 FOOD CORP","1239 ST NICHOLAS AVENUE, New York, NY","10032",40.84345732,-73.93809298
"308","GENOVESE DRUG STORES INC","195 8TH AVE, New York, NY","10011",40.7434083,-73.99986755
"309","FAIZ ALGABYALI & ABDO ALSABHI","1622 AMSTERDAM AVENUE, New York, NY","10031",NA,NA
"310","FIFTH AVENUE GOURMET DELI INC","2289 5TH AVENUE, New York, NY","10037",40.81510307,-73.93583711
"311","SAS NEWSSTAND CORP","1371 1ST AVENUE, New York, NY","10021",40.76867154,-73.95542677
"312","JKJ CORP","13 15 WEST 100TH STREET, New York, NY","10025",40.79439623,-73.96315659
"313","M & S FOOD CORP","2482 7TH AVE, New York, NY","10030",40.8211221,-73.93965032
"314","G & K FOOD CORP","3399 BROADWAY, New York, NY","10031",40.82206654,-73.95384606
"315","FIFTH AVENUE DELI MART INC","1318 5TH AVENUE, New York, NY","10026",40.79740567,-73.94891507
"316","RITE AID OF NEW YORK INC","2170 FREDERICK DOUGLASS BLVD., New York, NY","10026",40.80509138,-73.95478945
"317","3868 T S GROCERY INC","3868 BROADWAY, New York, NY","10032",40.83676251,-73.94268075
"318","SANTA BARBARA DELI CORP","551 E 12TH STREET, New York, NY","10009",NA,NA
"319","GG 1245 PARK LLC","1245 PARK AVENUE, New York, NY","10128",40.7864878,-73.95238598
"320","369 FARM S MARKET INC","64 W 9TH STREET, New York, NY","10011",40.73367064,-73.99801313
"321","WHOLE FOODS MARKET GROUP INC","4 UNION SQUARE SOUTH, New York, NY","10003",40.73533908,-73.99152858
"322","MADISON GOURMET LTD","931 MADISON AVE, New York, NY","10021",40.77304931,-73.96441666
"323","NAMDOR INC","2700 BROADWAY, New York, NY","10025",40.79905603,-73.96837918
"324","JC FOOD MARKET CORP","1091 ST NICHOLAS AVE, New York, NY","10032",40.83849816,-73.93990575
"325","P S MEAT CORP","238 WEST 116TH STREET, New York, NY","10026",40.80369785,-73.95381291
"326","RITE AID OF NEW YORK INC","1951 1ST AVENUE, New York, NY","10029",40.78584829,-73.9428973
"327","SILVER SADDLE DELI GROCERY INC","3635 BROADWAY, New York, NY","10031",40.82957172,-73.94835517
"328","JIMMY SOLANKI","107 109 E 23RD ST, New York, NY","10010",40.74007091,-73.98596326
"329","WHOLE FOODS MARKET GROUP INC","10 COLUMBUS CIRCLE STE SC101A, New York, NY","10019",40.76816382,-73.98238257
"330","SUPREME DELI CORP","801 WEST 181ST STREET, New York, NY","10033",40.85096968,-73.93826823
"331","1017 FRUIT & VEGETABLE CORP","1017 AVE OF THE AMERICAS, New York, NY","10018",40.75247793,-73.98587258
"332","SEUNG YUP SAKONG","1453 3RD AVE, New York, NY","10028",40.77621363,-73.95577896
"333","JUNCALITO MEAT & PRODUCE INC","2212 3RD AVENUE, New York, NY","10035",40.80085006,-73.93797898
"334","YOCASTA DASS","3400 BOSTON ROAD, New York, NY","10469",40.87539905,-73.85058057
"335","RICHARD BETANCES","1413 AMSTERDAM AVENUE, New York, NY","10027",NA,NA
"336","RUCHIKA ENTERPRISES INC","1594 YORK AVENUE, New York, NY","10028",40.77458118,-73.94800257
"337","T AND M DELI FOOD CORP","71 CABRINI BLVD, New York, NY","10033",40.85044001,-73.94048155
"338","FT WASHINGTON CANDY & GROCERY INC","802 W 181ST ST, New York, NY","10033",40.85094609,-73.93839403
"339","528 EAST ELEVEN DELI CORP","528 E 11TH ST, New York, NY","10009",40.72809276,-73.98112106
"340","YESOL MARKET INC","258 262 LEXINGTON AVE, New York, NY","10016",40.74718831,-73.97913682
"341","P S PLUS INC","666 6TH AVE, New York, NY","11215",40.66073072,-73.99046643
"342","C Y ENTERPRISE INC","514 HUDSON STREET, New York, NY","10014",40.73355171,-74.00624302
"343","MY DELI GROCERY INC","670 ACADEMY ST, New York, NY","10034",40.86667214,-73.92522514
"344","GOLDEN PINEAPPLE AVENUE D CORP","71 75 AVENUE D, New York, NY","10009",NA,NA
"345","RITE AID OF NEW YORK INC","4188 BROADWAY, New York, NY","10033",40.84822452,-73.93767642
"346","ADNADER INC","218 ST NICHOLAS AVENUE, New York, NY","10027",40.80752894,-73.95282948
"347","TUDOR FARM MARKET INC","45 TUDOR CITY PLACE, New York, NY","10017",40.74921051,-73.9704634
"348","ANA E MARTE","2374 AMSTERDAM AVENUE, New York, NY","10033",40.84608754,-73.93244922
"349","BENITO LEZAMA","238 E 116TH ST, New York, NY","10029",40.7975181,-73.9391762
"350","BOGOPA MADISON LLC","1718 MADISON AVE, New York, NY","10029",40.79820681,-73.94621382
"351","22 CHELSEA FARM LLC","234 8TH AVENUE, New York, NY","10011",40.74457736,-73.9989053
"352","FIRST AVENUE DELI & GROCERY INC","196 1ST AVENUE, New York, NY","10009",40.72236966,-73.98625355
"353","GRACEFULLY INC","320 1ST AVENUE, New York, NY","10009",40.73387715,-73.98041065
"354","148 FOOD PLAZA INC","3596 BROADWAY, New York, NY","10031",40.828197,-73.94894702
"355","MARIA NAVARRETE","174 6 E 118TH STREET, New York, NY","10035",40.7995585,-73.93992707
"356","LIBERATO GROCERY INC","359 AUDUBON AVENUE, New York, NY","10033",NA,NA
"357","DUANE READE INC","37 BROADWAY, New York, NY","10006",40.70617162,-74.01310205
"358","DUANE READE INC","250 BROADWAY, New York, NY","10007",40.71302274,-74.00730199
"359","DUANE READE INC","401 PARK AVE SOUTH, New York, NY","10016",40.74310657,-73.98406621
"360","DUANE READE INC","1430 BROADWAY, New York, NY","10018",40.75421197,-73.98680353
"361","DUANE READE INC","485 LEXINGTON AVE, New York, NY","10017",40.75419279,-73.97395486
"362","DUANE READE INC","51 W 51ST ST, New York, NY","10019",40.76094863,-73.98078233
"363","DUANE READE INC","41 E 58TH ST, New York, NY","10022",40.762898,-73.97158114
"364","DUANE READE INC","305 BROADWAY, New York, NY","10007",40.71539413,-74.00535062
"365","DUANE READE INC","525 7TH AVE, New York, NY","10018",40.7537259,-73.98848531
"366","DUANE READE INC","358 5TH AVE, New York, NY","10001",40.74863076,-73.9844653
"367","DUANE READE INC","67 BROAD ST, New York, NY","10004",40.70505254,-74.01145173
"368","DUANE READE INC","95 WALL ST, New York, NY","10005",40.70512344,-74.00739274
"369","DUANE READE INC","49 E 52ND ST, New York, NY","10022",40.7590184,-73.97434271
"370","DUANE READE INC","386 FULTON ST, New York, NY","11201",40.69136412,-73.987271
"371","DUANE READE INC","55 E 55TH ST, New York, NY","10022",40.76079206,-73.9727009
"372","DUANE READE INC","4 PARK AVE, New York, NY","10016",40.7465344,-73.98195915
"373","DUANE READE INC","1 WHITEHALL ST, New York, NY","10004",40.70405017,-74.01310505
"374","DUANE READE INC","100 W 57TH ST, New York, NY","10019",40.76430199,-73.977304
"375","DUANE READE INC","333 7TH AVE, New York, NY","10001",40.74762918,-73.99297727
"376","DUANE READE INC","598 BROADWAY, New York, NY","10012",40.72521262,-73.99685218
"377","DUANE READE INC","1191 2ND AVE, New York, NY","10021",40.76289489,-73.96273656
"378","DUANE READE INC","2522 BROADWAY, New York, NY","10025",40.79344193,-73.97244896
"379","7TH ST VILLAGE FARM INC","113 1ST AVENUE, New York, NY","10003",40.72698245,-73.98581579
"380","DUANE READE INC","279 W 125TH ST, New York, NY","10027",40.809948,-73.95052548
"381","DUANE READE INC","1627 BROADWAY, New York, NY","10019",40.76143415,-73.98412374
"382","JOSEPH'S FOOD CORP","248 NAGLE AVENUE, New York, NY","10034",40.86301737,-73.92125594
"383","DUANE READE INC","250 W 57TH ST, New York, NY","10107",40.76635242,-73.98219758
"384","DUANE READE INC","315 W 23RD ST, New York, NY","10011",40.74545511,-73.9987405
"385","DUANE READE INC","320 W 145TH ST, New York, NY","10039",40.82321692,-73.94297934
"386","DUANE READE INC","460 8TH AVE, New York, NY","10001",40.74953221,-73.99159906
"387","DUANE READE INC","111 WORTH ST, New York, NY","10013",40.71575442,-74.00328861
"388","DUANE READE INC","1749 1753 1ST AVE, New York, NY","10128",40.77999751,-73.94716019
"389","DUANE READE INC","1270 BROADWAY, New York, NY","10001",40.74886667,-73.98796265
"390","DUANE READE INC","194 E 2ND ST, New York, NY","10009",40.72216193,-73.98364962
"391","DUANE READE INC","325 N END AVE, New York, NY","10282",40.71667412,-74.01495937
"392","DUANE READE INC","1251 AVENUE OF THE AMERICAS, New York, NY","10020",40.75969117,-73.98062472
"393","DUANE READE INC","2409 BROADWAY, New York, NY","10024",40.78996374,-73.97541368
"394","DUANE READE INC","931 1ST AVE, New York, NY","10022",40.75493192,-73.96544935
"395","DUANE READE INC","1490 MADISON AVE, New York, NY","10029",40.79108874,-73.95142105
"396","DUANE READE INC","1479 3RD AVE, New York, NY","10028",40.77721891,-73.9550461
"397","DUANE READE INC","300 W 135TH ST, New York, NY","10030",40.81646172,-73.94658816
"398","DUANE READE INC","1091 LEXINGTON AVE, New York, NY","10021",40.77334844,-73.95997064
"399","DUANE READE INC","900 8TH AVE, New York, NY","10019",40.76478365,-73.98418624
"400","DUANE READE INC","873 BROADWAY, New York, NY","10003",40.73781434,-73.99018347
"401","DUANE READE INC","1675 3RD AVE, New York, NY","10128",40.78375066,-73.95029374
"402","DUANE READE INC","2760-62 BROADWAY, New York, NY","10025",40.80129417,-73.96766201
"403","DUANE READE INC","625 8TH AVE, New York, NY","10018",40.75610018,-73.99067169
"404","DUANE READE INC","1915 3RD AVE, New York, NY","10029",40.79128036,-73.94480581
"405","DUANE READE INC","300 E 39TH ST, New York, NY","10016",40.74784614,-73.97359943
"406","DUANE READE INC","180 W 20TH ST, New York, NY","10011",40.74193881,-73.9964673
"407","DUANE READE INC","1370 6TH AVE, New York, NY","10019",40.76360229,-73.97763296
"408","DUANE READE INC","866 3RD AVE, New York, NY","10022",40.75773619,-73.96943809
"409","DUANE READE INC","2 PENN STATION AMTRAK LEVEL, New York, NY","10121",NA,NA
"410","DUANE READE INC","22 W 48TH ST, New York, NY","10036",40.75779149,-73.97945137
"411","DUANE READE INC","71 W 23RD ST, New York, NY","10010",40.74254848,-73.99181097
"412","DUANE READE INC","196 3RD AVE, New York, NY","10003",40.73568096,-73.98551391
"413","DUANE READE INC","4 COLUMBUS CIRCLE, New York, NY","10019",40.76768928,-73.98227102
"414","DUANE READE INC","253 W 72ND ST, New York, NY","10023",40.77936777,-73.98330284
"415","DUANE READE INC","125 133 3RD AVE, New York, NY","10003",0,0
"416","DUANE READE INC","77 7TH AVE, New York, NY","10011",40.73932444,-73.99903245
"417","DUANE READE INC","33 7TH AVE, New York, NY","10011",40.73748656,-74.00037348
"418","DUANE READE INC","2108 3RD AVE, New York, NY","10029",40.79753242,-73.94041605
"419","DUANE READE INC","100 DELANCEY ST, New York, NY","10012",40.71890972,-73.9888979
"420","DUANE READE INC","322 8TH AVE, New York, NY","10001",40.7471944,-73.99701865
"421","DUANE READE INC","1231 MADISON AVE, New York, NY","10128",40.78247248,-73.95751843
"422","DUANE READE INC","585 2ND AVE, New York, NY","10016",40.74352844,-73.97685257
"423","DUANE READE INC","700 COLUMBUS AVE, New York, NY","10025",40.79165404,-73.96847218
"424","DUANE READE INC","2025 BROADWAY, New York, NY","10023",40.7769349,-73.98228702
"425","DUANE READE INC","609 COLUMBUS AVE, New York, NY","10024",40.7888071,-73.97039185
"426","DUANE READE INC","4 W 4TH ST, New York, NY","10012",40.72843695,-73.99443106
"427","DUANE READE INC","777 6TH AVE, New York, NY","10001",40.74490895,-73.99141248
"428","DUANE READE INC","135 E 125TH ST, New York, NY","10035",40.80455706,-73.93772726
"429","DUANE READE INC","401 E 86TH ST, New York, NY","10028",40.7768795,-73.94925472
"430","DUANE READE INC","721 9TH AVE, New York, NY","10019",40.76290368,-73.9894431
"431","DUANE READE INC","1187 1ST AVE, New York, NY","10065",40.76290215,-73.95963375
"432","DUANE READE INC","1498 YORK AVE, New York, NY","10075",40.77137148,-73.95034393
"433","DUANE READE INC","852 2ND AVE, New York, NY","10017",40.75194393,-73.97056707
"434","DUANE READE INC","2864 BROADWAY, New York, NY","10025",40.804943,-73.96590531
"435","DUANE READE INC","773 LEXINGTON AVE, New York, NY","10065",40.76312804,-73.96743409
"436","BRANCO & BRANCO 1 INC","80 VARICK STREET, New York, NY","10013",40.72312115,-74.00613894
"437","PATZERIA PERFECT PIZZA INC","231 WEST 46TH STREET, New York, NY","10036",40.75899881,-73.98593443
"438","S & J GROCERY INC","27 ESSEX ST, New York, NY","10002",40.71559348,-73.98979381
"439","HENRY ST SUPERIOR DELI CORP","280 HENRY STREET, New York, NY","10002",40.71388728,-73.98364457
"440","LEX34 FRUIT & VEGETABLE CORP","136 E 34TH STREET, New York, NY","10016",40.74634705,-73.97974622
"441","91 CATHERINE GROCERY CORP","91 HAMILTON AVENUE, New York, NY","10031",40.82309547,-73.95041039
"442","TEJADA GROCERY INC","717 W 181ST STREET, New York, NY","10033",40.85063072,-73.93706622
"443","CANAL STREET NEWSTAND CORP","52 CANAL STREET GROUND FL, New York, NY","10002",40.71482819,-73.99187416
"444","EAST VILLAGE GOURMET DELI CORP","217 AVENUE A, New York, NY","10009",40.72980825,-73.98086369
"445","CHELSEA HYPERMARKET INC","366 W 23RD STREET, New York, NY","10011",40.74591114,-74.00011508
"446","ERNST KLEIN 6TH AVE FOODS INC","1366 6TH AVENUE, New York, NY","10019",40.76337328,-73.97779881
"447","S J T PRINCE LLC","124 THOMPSON ST, New York, NY","10012",40.72611279,-74.00149359
"448","JUANCHI DELI GROCERY CORP","2533 7TH AVENUE, New York, NY","10029",40.82270779,-73.9380944
"449","1588 MADISON AVE GROCERY INC","1588 MADISON AVENUE, New York, NY","10029",40.79432833,-73.94905663
"450","WAN HOME FOOD MARKET CORP","162 MOTT STREET, New York, NY","10013",40.71975937,-73.99610353
"451","82 CORNER MARKET INC","1576 1ST AVENUE, New York, NY","10028",40.77423978,-73.95120903
"452","MD WEST SIDE GOURMET CORP","2528 BROADWAY, New York, NY","10025",40.79349191,-73.97241332
"453","SABANA MEAT CORP","309 E 115TH STREET, New York, NY","10029",40.79627804,-73.93797963
"454","JANICO DELI GROCERY INC","309 E HOUSTON STREET, New York, NY","10002",40.72121261,-73.98342328
"455","EAST VILLAGE FRUIT AND VEGETABLE CORP","229 AVENUE B, New York, NY","10009",40.72887259,-73.97835571
"456","2806 A & J DELI & GROCERY INC","2806 8TH AVENUE, New York, NY","10039",40.82555854,-73.93982077
"457","SOHO GARDEN INC","40 PRINCE STREET, New York, NY","10012",40.72311406,-73.99525786
"458","ZARO PENN INC","2 PENN PLAZA CONCOURSE LEVEL, New York, NY","10001",40.74958632,-73.99172472
"459","180 MARKETPLACE, INC.","180 RIVERSIDE BLVD, 1ST FLOOR, New York, NY","10023",40.7782102,-73.98852911
"460","LAITH GROCERY CORP","3341 BROADWAY, New York, NY","10031",40.82019494,-73.95520925
"461","LATINO GROCERY & CANDY INC","165 NAGLE AVENUE, New York, NY","10040",40.86129112,-73.92543621
"462","NEW KAM MAN LLC","200 CANAL STREET, New York, NY","10013",40.717025,-73.99848924
"463","FAIRWAY UPTOWN LLC","2328 12TH AVE, New York, NY","10027",40.82181255,-73.9574437
"464","MUJIBUR RAHMAN","124 2ND AVENUE, New York, NY","10003",40.72826076,-73.98783312
"465","DUANE READE INC","771 8TH AVE, New York, NY","10036",40.76044953,-73.98752559
"466","DUANE READE INC","1889 BROADWAY, New York, NY","10023",40.77097188,-73.98232716
"467","WS MARKET LLC","2840 BROADWAY, New York, NY","10025",40.80425505,-73.96643644
"468","DUANE READE INC","46 3RD AVE, New York, NY","10003",40.7307377,-73.98911919
"469","148 DELI GROCERY INC","2787 8TH AVENUE, New York, NY","10039",40.82479772,-73.94056299
"470","WHOLE FOODS MARKET GROUP INC","95 E HOUSTON ST, New York, NY","10002",40.7238594,-73.99241691
"471","ME QUICK STOP GROCERY & CANDY CORP","4314 BROADWAY, New York, NY","10033",40.85189799,-73.93476422
"472","HECTOR GUZMAN","505 W 179 STREET, New York, NY","10033",40.84694943,-73.93206062
"473","SHRI KRUSHNA INC","186 PRINCE STREET, New York, NY","10012",40.72637764,-74.00227344
"474","DUANE READE INC","661 8TH AVE, New York, NY","10036",40.75725844,-73.98982035
"475","RODRIGUEZ AZTECA DELI GROCERY INC","3861 10TH AVENUE, New York, NY","10034",40.86404087,-73.91925823
"476","FELO DELI GROCERY CORP","23 WEST 100TH STREET, New York, NY","10025",NA,NA
"477","1842 7TH AVENUE DELICATESSEN CORP","200 W 112TH STREET, New York, NY","10027",40.80064929,-73.95454203
"478","DELI AT FIRST & FIFTY NINTH INC,THE","1075 1ST AVENUE, New York, NY","10022",40.75939766,-73.962201
"479","MALCOLM FOOD MARKET CORP","393 LENOX AVENUE STORE #6, New York, NY","10027",40.81078127,-73.94345401
"480","GARDEN CITY DELI CORP","607 9TH AVE, New York, NY","10036",40.75915194,-73.99218181
"481","GREEN GOURMET DELI CORP","593 10 AVE, New York, NY","10036",40.76033358,-73.99504107
"482","NAMDOR INC","90 MAIDEN LANE, New York, NY","10038",40.70699776,-74.00725882
"483","DUANE READE INC","1052 1055 FIRST AVE, New York, NY","10022",40.7587195,-73.96268887
"484","DUANE READE INC","1637 YORK AVE, New York, NY","10028",40.77607464,-73.94708301
"485","DUANE READE INC","425 MAIN ST, New York, NY","10044",40.7590756,-73.95369483
"486","GOLDEN FOOD MARKET INC","118 FIRST AVENUE, New York, NY","10009",40.72696533,-73.98566338
"487","THRIFTY DELI SUPERMARKET CORPORATION","3149 BROADWAY, New York, NY","10027",40.81432212,-73.95949577
"488","R & A FOOD INC","345 W 42ND ST, New York, NY","10036",40.75780212,-73.99102315
"489","NYC BAGEL, INC","301 E 38TH ST AKA 714A 2ND AVE, New York, NY","10016",40.74732075,-73.97397307
"490","CVS ALBANY LLC","150 E 42ND ST, New York, NY","10017",40.75115117,-73.97546768
"491","JUBILEE NEWS INC.","2659A BROADWAY, New York, NY","10025",40.79792892,-73.96959327
"492","DISCOUNT DEPOT INC","1627 2ND AVE, New York, NY","10028",40.77683323,-73.95256894
"493","78 COLUMBUS DELI INC","370A COLUMBUS AVENUE, New York, NY","10024",40.78113895,-73.97614601
"494","SADIK AHMED ALSAYYOY","4133 BROADWAY, New York, NY","10033",40.84596942,-73.93857063
"495","222 MARKET CORP","384 2ND AVENUE, New York, NY","10010",40.73728334,-73.98125128
"496","DIAMOND NEWS INC","631 2ND AVE, New York, NY","10016",40.74510277,-73.97572112
"497","MIDTOWN GROCERY & CANDY CORP","1045 1ST AVENUE, New York, NY","10022",40.75840459,-73.96291632
"498","JBSR ASSOCIATES LLC","942 1ST AVENUE, New York, NY","10022",40.75504767,-73.96519859
"499","UNIQUE NEWS INC","2218 BROADWAY, New York, NY","10024",40.78375487,-73.97983387
"500","7TH AVE CONVENIENCE INC","200 7TH AVE, New York, NY","10011",40.74346724,-73.99617291
"501","M & J FOOD DELI GROCERY INC","608 W 192ND ST, New York, NY","10040",40.85617753,-73.92884083
"502","TIME SQUARE NEWS AND CONVENIENCE INC","362 WEST 42ND ST, New York, NY","10036",40.75793013,-73.99162504
"503","MR SANDWICH DELI INC","1704 1712 AMSTERDAM AVENUE, New York, NY","10031",40.82502764,-73.94782817
"504","N & N DELANCEY SMOKE SHOP INC","61 DELANCEY ST, New York, NY","10002",40.71924231,-73.99099261
"505","RAYAN CONVENIENCE INC","304 W 14TH STREET, STORE #3, New York, NY","10014",40.7397555,-74.0026917
"506","DON JUAN DELI & GROCERY INC","110 FORSYTH STREET, New York, NY","10002",40.71884681,-73.99252938
"507","RAYIRA GROCERY DELI CORP","247 AUDUBON AVENUE, New York, NY","10033",40.84634931,-73.93398348
"508","MAN SOO HAN","888 MAIN STREET, New York, NY","10044",40.76834525,-73.94284464
"509","CVS ALBANY LLC","338 E 23RD ST, New York, NY","10010",40.73743544,-73.97998866
"510","WEST STREET GOURMET INC.","21 WEST ST, New York, NY","10006",40.70597029,-74.01604051
"511","JD AVENUE C FOOD CORP","42 AVENUE C, New York, NY","10009",40.72190583,-73.98033803
"512","FERASS DELI CORP","831 6TH AVE, New York, NY","10001",40.74656617,-73.99012784
"513","DUANE READE INC","1356 LEXINGTON AVE, New York, NY","10128",40.78188586,-73.95389533
"514","DUANE READE INC","352 GREENWICH ST, New York, NY","10013",40.71877677,-74.01040645
"515","DUANE READE INC","619 9TH AVE, New York, NY","10036",40.75965225,-73.99180635
"516","PAUL SEVEN ELEVEN 2 INC","140 CHURCH STREET, New York, NY","10007",40.71447109,-74.0083913
"517","TAWFIK SALEH MOHAMED","2285 1ST AVE, New York, NY","10035",40.79699806,-73.93467704
"518","2037 MEAT & GROCERY INC","2037 2ND AVE, New York, NY","10029",40.789644,-73.94321986
"519","CVS ALBANY LLC","272 8TH AVE, New York, NY","10011",40.74572588,-73.99808602
"520","374 FOOD INCORPORATED","374 CANAL ST, New York, NY","10013",40.72107712,-74.0043558
"521","WHOLE FOODS MARKET GROUP INC","270 GREENWICH ST, New York, NY","10007",40.71505138,-74.01134837
"522","EL GALLO MEAT MARKET INC","538 W 138TH STREET, New York, NY","10031",40.82171124,-73.95309302
"523","21 BERRY DELI INC","922 BROADWAY, New York, NY","10010",40.73983111,-73.98951689
"524","POST FOOD CORP","317 9TH AVE, New York, NY","10001",40.75032055,-73.99851396
"525","SHAAB DELI INC","2921 8TH AVE AKA FREDERICK DOU, New York, NY","10039",40.82888617,-73.93755845
"526","THE NEW KING DELI GROCERY CORP","23 E 115TH STREET, New York, NY","10029",40.79962312,-73.94599658
"527","TU CASA DELI GROCERY INC","29 E 104TH ST, New York, NY","10029",NA,NA
"528","DUANE READE INC","325 COLUMBUS AVE, New York, NY","10023",40.77948287,-73.97719579
"529","DUANE READE INC","1352 1ST AVE, New York, NY","10021",40.76806603,-73.95570875
"530","DUANE READE INC","459 BROADWAY, New York, NY","10013",40.72077454,-74.00080087
"531","ROSANNA FOOD CORP","592 LENOX AVENUE, New York, NY","10037",40.81711126,-73.93847589
"532","MELON 940 FARM INC","940 2ND AVENUE, New York, NY","10022",40.75475596,-73.96851677
"533","BRANDKAT CORP","1428 AVENUE OF THE AMERICAS, New York, NY","10019",NA,NA
"534","10TH AVENUE PETROLEUM LLC","466 10TH AVE, New York, NY","10018",40.75585391,-73.99812732
"535","TOKYO MART INC","91 MULBERRY STREET, New York, NY","10013",40.71679354,-73.99883304
"536","DUANE READE INC","1235 LEXINGTON AVE, New York, NY","10028",40.77826974,-73.95637769
"537","BENJAMIN FLORES","2175 2ND AVENUE, New York, NY","10029",40.79447196,-73.93971458
"538","DUANE READE INC","17 JOHN ST, New York, NY","10038",40.70992644,-74.0088763
"539","1411 6 FRUIT & VEGETABLE CORP","1411 6TH AVENUE, New York, NY","10019",40.76472578,-73.97698279
"540","EL MANANTIAL GROCERY STORE INC","180 AUDUBON AVENUE, New York, NY","10033",40.84416655,-73.93574923
"541","DUANE READE INC","200 WATER ST, New York, NY","10038",NA,NA
"542","HI FI NEWS & GROCERY INC","1734 2ND AVENUE, New York, NY","10128",40.78049574,-73.94972543
"543","PALOMA DELICATESSEN CORP","667 W 177TH ST STORE #7, New York, NY","10033",40.84745682,-73.93721377
"544","KAY MARKET INC","645 BROADWAY, New York, NY","10012",40.7266159,-73.99583674
"545","2268 DELI & GROCERY INC","2268 8TH AVENUE, New York, NY","10027",40.80808897,-73.95259897
"546","EAGLE COSMETICS INC","971 1ST AVENUE, New York, NY","10022",40.75599285,-73.96469137
"547","9TH AVE ROYAL DELI INC","817 9TH AVENUE, New York, NY","10019",40.76602843,-73.9871734
"548","600 BROADWAY DELI CORP","3513 BROADWAY, New York, NY","10031",40.82572303,-73.95116631
"549","PRAYOSHA 202 INC","202 MOTT STREET, New York, NY","10012",40.7214056,-73.99545881
"550","WS SUPER DELI INC.","350 W 14TH STREET, New York, NY","10014",40.740281,-74.00392927
"551","CVS ALBANY LLC","1569 1ST AVE, New York, NY","10028",40.77412624,-73.95145277
"552","CVS ALBANY LLC","750 AVE OF THE AMERICAS, New York, NY","10010",40.74416429,-73.9917892
"553","CVS ALBANY LLC","253 1ST AVE, New York, NY","10003",40.73190868,-73.98224185
"554","CVS ALBANY LLC","1223 2ND AVE, New York, NY","10065",40.76374595,-73.96203005
"555","JORGE FERNANDEZ","122 SUFFOLK STREET, New York, NY","10002",40.71926771,-73.985852
"556","CVS ALBANY LLC","1294 LEXINGTON AVE, New York, NY","10128",40.78049013,-73.95491477
"557","111 SECOND FOOD CORP","107 2ND AVENUE, New York, NY","10003",40.72759935,-73.98847676
"558","CAPELLAN DELI GROCERY CORP","1626 PARK AVENUE, New York, NY","10029",40.79918189,-73.94360033
"559","LA OAXAQUENA DELI GROCERY INC","501 W 161ST ST, New York, NY","10032",40.83537071,-73.94024185
"560","DUANE READE INC","568 W 125TH ST, New York, NY","10027",40.81499334,-73.9578393
"561","CVS ALBANY LLC","215 PARK AVE SOUTH, New York, NY","10003",40.73698078,-73.98856324
"562","CVS ALBANY LLC","158 BLEECKER ST, New York, NY","10012",40.72844112,-73.99985151
"563","CVS ALBANY LLC","1500 LEXINGTON AVE, New York, NY","10029",40.7865914,-73.95051203
"564","CVS ALBANY LLC","130 LENOX AVE, New York, NY","10026",40.80265773,-73.94903128
"565","CVS ALBANY LLC","630 LEXINGTON AVE, New York, NY","10022",40.75876645,-73.97077546
"566","CVS ALBANY LLC","500 W 42ND ST, New York, NY","10036",40.75957384,-73.99552149
"567","CVS ALBANY LLC","115 W 125TH ST, New York, NY","10027",40.80803223,-73.94594619
"568","301 WEST SIDE CORP","301 AMSTERDAM AVENUE, New York, NY","10023",40.77991376,-73.98058404
"569","1915 LEXINGTON FOOD CORP","1915 LEXINGTON AVENUE, New York, NY","10035",40.80067017,-73.9400375
"570","LA KABBR MIDDLE EAST CUISINE CORP","408 W 56TH ST, New York, NY","10019",40.76732051,-73.98653317
"571","MANHATTAN GROCERY CORP","150 MANHATTAN AVE, New York, NY","10025",40.79928387,-73.96091861
"572","JAMAL A. ALHARBI","159 E HOUSTON ST, New York, NY","10002",40.72295497,-73.9891965
"573","701 DELI INC","701 LENOX AVENUE, New York, NY","10039",40.82053699,-73.936336
"574","AFSANA HAQUE","149 1ST AVENUE, New York, NY","10003",40.72829953,-73.98485138
"575","RAYMOND DELI GROCERY CORP.","24 07 2ND AVE, New York, NY","10035",40.72412884,-73.99098406
"576","RAMSES GROCERY CORP.","2090 AMSTERDAM AVE, New York, NY","10032",40.83685227,-73.93922378
"577","H & S GROCERY INC.","4464 BROADWAY, New York, NY","10040",40.85688503,-73.93247012
"578","CENTRE FINEST DELI INC","140 CENTRE STREET, New York, NY","10013",40.71723431,-74.00045587
"579","CITY FUELS LLC","4353 BROADWAY, New York, NY","10033",40.85325227,-73.93422341
"580","CVS ALBANY LLC","2495 BROADWAY, New York, NY","10025",40.79266683,-73.97344693
"581","A&C 2541 MEAT CORP","2541 ADAM CLAYTON POWELL JR BL, New York, NY","10031",40.82351308,-73.93748914
"582","CVS ALBANY LLC","1241 LEXINGTON AVE, New York, NY","10028",40.7783813,-73.95629539
"583","WHOLE FOODS MARKET GROUP INC","808B COLUMBUS AVE, New York, NY","10025",40.79521566,-73.96579397
"584","THE STEARN COMPANY","89 E 42ND ST, New York, NY","10017",40.75215285,-73.97759563
"585","CVS ALBANY LLC","20 UNIVERSITY PL, New York, NY","10003",40.73173126,-73.99473657
"586","16ST DELI & GROCERY INC","279 1ST AVENUE, New York, NY","10003",40.7326538,-73.98160612
"587","1663 PARK AVE MINI MARKET CORP.","1663 PARK AVENUE, New York, NY","10035",40.7999883,-73.94249694
"588","1797 EMPIRE INC","1797 1ST AVENUE, New York, NY","10128",40.78125715,-73.9462407
"589","CHELSEA FRUIT & VEGETABLE INC.","115 W 23RD STREET, New York, NY","10011",40.74314517,-73.99321096
"590","132 DELI & GROCERY CORP","2240 7TH AVENUE, New York, NY","10027",40.81337978,-73.94529183
"591","DUANE READE INC","1350 BROADWAY, New York, NY","10018",40.75102669,-73.98761279
"592","3RD AVE FOOD CORP I","325 3RD AVE, New York, NY","10010",40.7396477,-73.98244786
"593","194 MANHATTAN DELI INC","194 MANHATTAN AVE, New York, NY","10025",40.79987817,-73.96055925
"594","KMART CORPORATION","250 W 34TH ST, New York, NY","10119",40.75155554,-73.99210088
"595","COSTCO WHOLESALE  CORPORATION","517 E 117 ST, New York, NY","10035",40.79569331,-73.93240423
"596","208 RIVINGTON INC","208 RIVINGTON ST, New York, NY","10002",40.71858345,-73.98325718
"597","YC DELI GOURMET MARKET INC","1576 2ND AVENUE, New York, NY","10028",40.77515918,-73.95362414
"598","JEANNIE'S DELI CORP","194 8TH AVENUE, New York, NY","10011",40.7433207,-73.9998472
"599","1517 DELI GROCERY CORP","1517 ST NICHOLAS AVENUE, New York, NY","10033",40.85238057,-73.93156414
"600","ZULEY DELI GROCERY CORP","1681 AMSTERDAM AVE, New York, NY","10031",40.82391561,-73.948462
"601","WILLIAM MARTE","996 AMSTERDAM AVENUE, New York, NY","10025",40.8024894,-73.96427447
"602","2070 K S DELI GROCERY INC","2070 8TH AVENUE, New York, NY","10026",40.8018494,-73.95715107
"603","SECOND AVENUE DELI MARKET INC","81 2ND AVENUE, New York, NY","10003",40.72664658,-73.98916354
"604","CVS ALBANY LLC","130 DYCKMAN ST, New York, NY","10040",40.8623125,-73.92529691
"605","MAGED M HIMED","561 2ND AVENUE, New York, NY","10016",40.7428691,-73.97734211
"606","S & I VARIETY MARKET LLC","2 RECTOR STREET, New York, NY","10006",40.70750935,-74.01195092
"607","1944 FIRST AVENUE DELI CO LLC","1944 1ST AVENUE, New York, NY","10029",40.78629255,-73.94238966
"608","PANIAGUA DELI GROCERY CORP","203 E 115TH STREET, New York, NY","10029",40.79725076,-73.94039895
"609","535 8TH AVENUE CORP","535 8TH AVE, NORTH SIDE, New York, NY","10018",40.75401217,-73.99220119
"610","BEST YET MARKET OF HARLEM INC","301 W 118TH STREET, New York, NY","10026",40.80578062,-73.95441624
"611","JENNIFER ALAN RAM LTD","455 W 37TH ST, New York, NY","10018",40.75623156,-73.99699643
"612","DUANE READE INC","131 8TH AVE, New York, NY","10011",40.74141181,-74.00138342
"613","CVS ALBANY LLC","275 3RD AVE, New York, NY","10010",40.73785902,-73.9837563
"614","CVS ALBANY LLC","743 AMSTERDAM AVE, New York, NY","10025",40.79410455,-73.97023077
"615","CVS ALBANY LLC","1622 THIRD AVE, New York, NY","10128",40.78203334,-73.95169255
"616","WALGREEN EASTERN CO INC","1471 BROADWAY, New York, NY","10036",40.75589552,-73.98642708
"617","WALGREEN EASTERN CO INC","2575 BROADWAY, New York, NY","10025",40.7952306,-73.97155884
"618","WALGREEN EASTERN CO INC","145 FOURTH AVE, New York, NY","10003",40.73388309,-73.98976115
"619","7TH AVE HARLEM FOOD CORP","2299 ADAM CLAYTON POWELL JR BL, New York, NY","10030",40.81522228,-73.94354542
"620","DE RONG INC","135-137 CHRYSTIE STREET, New York, NY","10002",40.71940221,-73.99324842
"621","MIKE'S SMOKE SHOP INC","1666 1ST AVENUE, New York, NY","10028",40.77748973,-73.94882784
"622","CVS ALBANY LLC","320 5TH AVE, New York, NY","10001",40.74719218,-73.98553785
"623","2732 CONVENIENCE GROCERY CORP","2732 BROADWAY, New York, NY","10025",40.80020207,-73.967867
"624","EASTEND GROCERY & LOTTO INC","1662 1ST AVENUE, New York, NY","10028",40.77730817,-73.94895678
"625","CVS ALBANY LLC","75 CHRISTOPHER ST, New York, NY","10014",40.7335824,-74.00295857
"626","1517 NEW BANI GROCERY INC","1517 LEXINGTON AVENUE, New York, NY","10029",40.78694312,-73.95007287
"627","FIRST & FIRST FINEST DELI CORP","18 20 1ST AVE, New York, NY","10009",40.72347694,-73.98819607
"628","BIG JOYS CORP","271 273 W 72ND STREET, New York, NY","10023",40.77956685,-73.98376268
"629","DEWEL GONZALEZ","2121 2ND AVENUE, New York, NY","10029",40.79291596,-73.94083143
"630","WALGREEN EASTERN CO INC","350 FIFTH AVE, New York, NY","10118",42.08657317,-78.42207354
"631","GOURMET 157 CORP","157 CHRISTOPHER ST, New York, NY","10014",40.73277221,-74.00828526
"632","2278 DELI AND GROCERY INC","2278 7TH AVE, New York, NY","10030",40.81467028,-73.94434891
"633","PRAMUKH 16 INC","162 THIRD AVENUE, New York, NY","10003",40.73454543,-73.98632794
"634","DUANE READE INC","260 MADISON AVE, New York, NY","10016",40.75075618,-73.98088825
"635","WALGREEN EASTERN CO INC","1328 2ND AVE, New York, NY","10021",40.76747489,-73.9592313
"636","CVS ALBANY LLC","129 FULTON ST, New York, NY","10038",40.71025177,-74.00768765
"637","T S M 2ND AVE GOURMET INC","248 E 119TH ST, New York, NY","10035",40.79937046,-73.93753383
"638","145 DELI & GROCERY INC","1717 AMSTERDAM AVE, New York, NY","10031",40.82518862,-73.94754984
"639","HELEN FOOD CORP","1165 2ND AVENUE, New York, NY","10021",40.76205862,-73.96335023
"640","H & W DELI GROCERY INC","4740 44 BROADWAY, New York, NY","10040",40.85732891,-73.93113062
"641","S M NEWS & GROCERY INC","1419 LEXINGTON AVE, New York, NY","10128",40.78374717,-73.95238038
"642","1836 AMSTERDAM MINIMARKET CORP","1836 AMSTERDAM AVENUE, New York, NY","10031",40.82896945,-73.9449488
"643","TRADER JOES EAST INC","675 6TH AVENUE, New York, NY","10010",40.74171991,-73.99373991
"644","ARCHIE GROCERY CORP","1061 ST NICHOLAS AVE, New York, NY","10032",40.83710416,-73.94017285
"645","WILD OLIVE MARKETS INC","10 EAST 125TH ST, New York, NY","10035",40.80623019,-73.94199065
"646","MR 2497 FOOD CORP","2497 7TH AVENUE, New York, NY","10030",40.82148746,-73.93898143
"647","DUANE READE INC","52 E 14TH ST, New York, NY","10003",40.73524753,-73.99175377
"648","DUANE READE INC","60 SPRING ST, New York, NY","10012",40.72222821,-73.99712025
"649","CVS ALBANY LLC","500 GRAND ST, New York, NY","10002",40.71470589,-73.98234845
"650","EASTSIDE GAS INC","1890 PARK AVENUE, New York, NY","10035",40.80737085,-73.93753231
"651","FAMILY FARM INC","1384 1ST AVENUE, New York, NY","10021",40.76883778,-73.95514012
"652","ANB DELI INC","142 9TH AVENUE, New York, NY","10011",40.74385927,-74.00314782
"653","DUANE READE INC","949 3RD AVE, New York, NY","10022",40.76014795,-73.96744903
"654","DUANE READE INC","775 COLUMBUS AVE, New York, NY","10025",40.79423579,-73.96642336
"655","YANKEE DELI INC","647 E 11TH STREET, New York, NY","10009",40.72725873,-73.97883587
"656","10TH AVENUE FOOD DEPOT INC","460 W 34TH STREET, New York, NY","10001",40.75419801,-73.99839786
"657","14TH STREET LOTTO & MAGAZINE INC","430 E 14TH STREET, New York, NY","10009",40.73100541,-73.98189716
"658","FAMILY FRUIT AND MEAT MARKET CORP","1474 ST NICHOLAS AVENUE, New York, NY","10033",40.85098613,-73.93240676
"659","TRADER JOES EAST INC","2073 2075 BROADWAY, New York, NY","10023",40.77860434,-73.98215891
"660","KING WASHINGTON GROCERY CORP","4225 BROADWAY, New York, NY","10033",40.84909543,-73.93697644
"661","MEXICAN DELI INC","2711 BROADWAY, New York, NY","10025",40.7995345,-73.96851762
"662","HUDSON PRODUCE INC","300 ALBANY STREET, New York, NY","10280",40.71002923,-74.01644273
"663","SANTIAGO DELI FOOD CORP","3415 BROADWAY, New York, NY","10031",40.82256288,-73.95348442
"664","WEST HARLEM DELI CORP","2040 5TH AVENUE, New York, NY","10035",40.80708265,-73.94184389
"665","2320 DELI GROCERY & PIZZA CORP","2320 7TH AVENUE, New York, NY","10030",40.81605635,-73.9433356
"666","HENG LI GROCERY STORE INC","329 GRAND STREET, New York, NY","10002",40.71705162,-73.9904291
"667","JOE S GOURMET HEALTH DELI INC","3161 BROADWAY, New York, NY","10027",40.81486354,-73.95910297
"668","SPACE NY 62 CORP","1130 1ST AVE, New York, NY","10065",40.76146867,-73.9605263
"669","CVS ALBANY LLC","1 COLUMBUS PL, New York, NY","10019",40.76955068,-73.98560816
"670","JN NATURAL FRUIT CORP","202 6TH AVE, New York, NY","10013",40.72682187,-74.00341107
"671","DUANE READE INC","455 W 37TH ST, New York, NY","10018",40.75618361,-73.99703162
"672","FILLING STATION LLC, THE","75 9TH AVENUE ARCADE SPACE, New York, NY","10011",40.74187366,-74.00483777
"673","WILSEA PARTNERS LLC","388 6TH AVENUE, New York, NY","10011",40.73328084,-73.99971538
"674","WESTSIDE SUPERMARKET LLC","77 7TH AVENUE, New York, NY","10011",40.73932444,-73.99903245
"675","C&N NEW YORK FOOD CORP","4138  BROADWAY, New York, NY","10033",40.8461741,-73.93836853
"676","EASTSIDE GOURMET DELI CORP","53 AVENUE B, New York, NY","10009",40.7232233,-73.98246399
"677","47 PITT GROCERY INC","47 PITT STREET, New York, NY","10002",40.71653385,-73.9834984
"678","MID WESTSIDE CONVENIENCE INC","653 AMSTERDAM AVE, New York, NY","10025",40.79124924,-73.97231369
"679","ST NICHOLAS JM DELI GROCERY INC","598 W 178TH STREET, New York, NY","10033",40.84727854,-73.9351504
"680","CHELSEA DELI CORP","301 10TH AVENUE, New York, NY","10001",40.75036949,-74.00229917
"681","MAX CONVENIENCE INC","364 W 23RD STREET, New York, NY","10011",40.74587977,-74.00004105
"682","EAST VILLAGE FINEST DELI CORP","240 E 4TH ST /50 AVE B STORE 1, New York, NY","10009",40.72330706,-73.98275095
"683","2154 3 SISTER S GROCERY & DELI INC","2154 8TH AVENUE, New York, NY","10026",40.80460528,-73.95513762
"684","MINI ES WHOLESOME FOOD CORP","226 E 7TH ST, New York, NY","10009",40.72403921,-73.97894071
"685","2829 PALACE FOOD INC","2829 8TH AVE, New York, NY","10039",40.82647026,-73.93934783
"686","FOODEX LLC","101 WEST END AVE, New York, NY","10023",40.77478418,-73.98821592
"687","CVS ALBANY LLC","81 8TH AVENUE, New York, NY","10011",40.73979499,-74.00257523
"688","BT TO GO GCT LLC","GRAND CENTRAL TERMINAL MC 36, New York, NY","10017",40.75300149,-73.97786028
"689","DUANE READE INC","2069 BROADWAY, New York, NY","10023",40.77834393,-73.98220105
"690","K & O DELI MEAT GROCERY INC","2288 2ND AVENUE, New York, NY","10035",40.79789102,-73.93703682
"691","L E S MINIMART CORP","127 RIVINGTON STREET STORE (E), New York, NY","10002",40.71959721,-73.98697681
"692","DONG JOO KIM","247 3RD AVE, New York, NY","10010",40.73700448,-73.98438878
"693","106 COLUMBIA DELI CORP","945 AMSTERDAM AVE, New York, NY","10025",40.80056608,-73.96549996
"694","1600 MADISON AVENUE FOOD CORP","1600 MADISON AVE, New York, NY","10029",40.79495203,-73.94860272
"695","H & K DELI CORP","361 3RD AVE, New York, NY","10016",40.74086177,-73.98157552
"696","MI MEXICO MINI MARKET CORP","172 E 104TH ST, New York, NY","10029",40.7906879,-73.94680374
"697","YANKEE TWO DELI INC","122 AVE C, New York, NY","10009",40.72457337,-73.97840309
"698","NAGLE FUEL CORP","265 NAGLE AVE, New York, NY","10034",40.86317431,-73.92050598
"699","SRM FUEL CORP","3936 10TH AVE, New York, NY","10034",40.86670537,-73.91745521
"700","SKYLINE GOURMET DELI INC","700 10TH AVE, New York, NY","10019",40.76373643,-73.9923886
"701","DUANE READE INC","40 WALL ST, New York, NY","10005",40.70652625,-74.00962052
"702","DUANE READE INC","1111 3RD AVE, New York, NY","10065",40.76549299,-73.96361287
"703","980 COLUMBUS FOOD CORP","980 COLUMBUS AVE, New York, NY","10025",40.80080278,-73.96180976
"704","SYED K MIAH","141 ESSEX ST N STORE, New York, NY","10002",40.72029136,-73.98736669
"705","FAIRWAY EAST 86TH STREET LLC","240 E 86TH ST, New York, NY","10028",40.77836716,-73.95308016
"706","DUANE READE INC","1550 3RD AVE, New York, NY","10128",40.77952219,-73.95352003
"707","SX GOURMET CORP","115 RIVINGTON ST, New York, NY","10002",40.71983294,-73.98775451
"708","D&S PRODUCE INC","156 E 110TH ST, New York, NY","10029",40.79465622,-73.94421943
"709","85 DELI MINI MARKET CORP","5008 BROADWAY STORE 5, New York, NY","10034",40.86861031,-73.91809879
"710","GROCERY TOST CAFE INC","59 4TH AVE, New York, NY","10003",40.73098887,-73.99036655
"711","AVENUE C FOOD CORP","185 AVENUE C STORE 2, New York, NY","10009",40.72663802,-73.97703694
"712","LA PARADA GROCERY & MEAT MARKET CORP","706 W 177TH ST, New York, NY","10033",40.84752169,-73.93817733
"713","WILLIAM VERAS BODEGA CORPORATION","257 259 DYCKMAN ST, New York, NY","10034",40.86657988,-73.92843222
"714","VILLAGE GOURMET GROCERY INC","102 2ND AVE, New York, NY","10003",40.72736439,-73.98848305
"715","ANNIES FRUIT & VEGETABLE STORE INC","1328 1330 LEXINGTON AVE, New York, NY","10128",40.78129438,-73.95433054
"716","SAN MICHAEL GROCERY INC","2032 MADISON AVE, New York, NY","10035",40.80827886,-73.93886093
"717","FREEDOM NEWS I INC","600 W 42ND ST, New York, NY","10017",NA,NA
"718","PATAL ASIA DELI GROCERY LLC","135 E 28TH ST, New York, NY","10016",40.74262304,-73.98227936
"719","82ND STREET GROCERY INC","454 AMSTERDAM AVE, New York, NY","10024",40.78504304,-73.97701388
"720","144 DELI GROCERY STORE CORP","144 NAGLE AVE, New York, NY","10040",40.86132978,-73.92564235
"721","710 FRANKLIN AVE CORP","333 E 23RD ST, New York, NY","10010",40.73758913,-73.9800559
"722","CRYSTAL DELI INC","10 12 E 23RD ST, New York, NY","10010",40.74115674,-73.98882805
"723","SANJAY SHRESTHA","230 E 80TH ST, New York, NY","10075",40.77460538,-73.95609885
"724","D & H CANDY INC","127 E 23RD ST, New York, NY","10010",40.73971198,-73.98508609
"725","PRIME ESSENTIALS LLC","345 BROADWAY, New York, NY","10013",40.71679663,-74.00413522
"726","SARH DELI GROCERY INC","201 W 131 ST, New York, NY","10027",NA,NA
"727","POLO GROUNDS MEAT CORP","2927 8TH AVE, New York, NY","10039",40.82909264,-73.9374033
"728","AK GOURMET MARKET CORP","201 MADISON ST, New York, NY","10002",NA,NA
"729","WEST VILLAGE CHOICE DELI INC","690 WASHINGTON ST, New York, NY","10014",40.73438076,-74.00853032
"730","PRAGI INC","200 W 96TH ST STORE 3, New York, NY","10025",40.79401393,-73.97043111
"731","AVENUE A DELI & FOOD INC","24 AVE A, New York, NY","10009",40.72296344,-73.9856663
"732","NEWS ON 23RD INC","171 W 23RD ST, New York, NY","10011",40.74378594,-73.99474013
"733","BROOME 400 INC","400 BROOME ST, New York, NY","10013",40.72074808,-73.99731111
"734","CVS ALBANY LLC","300 PARK AVE S, New York, NY","10010",40.73999248,-73.98669781
"735","1630 A NEW YORK DELI GROCERY INC","1630 ST NICHOLAS AVE, New York, NY","10040",40.85590017,-73.92890563
"736","NEW YORK MART MOTT ST INC","128 MOTT ST, New York, NY","10013",40.71827976,-73.99677802
"737","D M G DELI MINI MARKET CORP","339 E 115TH ST, New York, NY","10029",40.79598664,-73.93730204
"738","DUANE READE INC","1657 BROADWAY, New York, NY","10019",NA,NA
"739","140 CHARLES OASIS GOURMET INC","140 CHARLES ST, New York, NY","10014",40.73415888,-74.00802756
"740","LONDON GROCERY CORP","252 10TH AVE, New York, NY","10001",40.74866053,-74.00344809
"741","380 LENOX MEAT CORP","380 LENOX AVE, New York, NY","10027",40.81030287,-73.94353238
"742","LA NUEVA PLACITA MEAT & FRUIT MARKET INC","152A 152 NAGLE AVE, New York, NY","10040",40.86138586,-73.92541202
"743","CVS ALBANY LLC","540 AMSTERDAM AVE, New York, NY","10024",40.78776799,-73.97495332
"744","DAINOBU USA INC","129 E 47TH ST, New York, NY","10017",40.75451487,-73.97348962
"745","RIVINGTONS ORCHARD LLC","140 ORCHARD ST, New York, NY","10002",40.72016837,-73.98917455
"746","GOOD FOR LIFE BY 81 INC","201 E 81ST ST, New York, NY","10028",40.77556063,-73.95625497
"747","DUANE READE INC","575 LEXINGTON AVE, New York, NY","10022",40.75713541,-73.97187676
"748","FIRST KING GROCERY INC","40 ST NICHOLAS AVE, New York, NY","10026",40.79988159,-73.95245595
"749","MORTON FOOD & GROCERY INC","446 448 HUDSON ST, New York, NY","10014",40.73121198,-74.00668562
"750","URBAN TASTE CORP","299 3RD AVE, New York, NY","10010",40.7387964,-73.98314108
"751","CVS ALBANY LLC","1396 2ND AVE, New York, NY","10021",40.76923894,-73.95802771
"752","DUANE READE INC","3387 BROADWAY, New York, NY","10031",40.82164603,-73.95406649
"753","ZIAN ENTERPRISE INC","1140 1ST AVE, New York, NY","10065",40.7617885,-73.96037157
"754","710 QUICK STOP INC","710 2ND AVE, New York, NY","10016",40.74746112,-73.97390616
"755","171 MADISON AVENUE RETAIL INC","171 MADISON AVE, New York, NY","10016",40.74727165,-73.98331538
"756","752 TOBACCO CANDY INC","752 9TH AVE, New York, NY","10019",40.76382852,-73.98867484
"757","YORKK DELI & GROCERY INC","1661 YORK AVE, New York, NY","10128",40.77678405,-73.94648697
"758","NAMU GREEN MART INC","252 3RD AVE, New York, NY","10010",40.73721715,-73.98431072
"759","TZ UPTOWN CORPORATION","445 AUDUBON AVE, New York, NY","10040",40.85262741,-73.92947458
"760","LOMA DELI MARKET INC","133 AVENUE D, New York, NY","10009",40.72437415,-73.97551521
"761","115 W 57 MARKET INC","115 W 57 ST, New York, NY","10001",40.76469727,-73.97799868
"762","351 BOWERY STREET INC","351 BOWERY, New York, NY","10003",40.72644165,-73.99168674
"763","350 42 FRUIT & VEGETABLE CORP","350 W 42ND ST, New York, NY","10036",40.75782521,-73.99122702
"764","DDY MINI MARKET & DELI CORP","955 AMSTERDAM AVE, New York, NY","10025",40.80094584,-73.96532396
"765","5069 MEAT & PRODUCE CORP","5069 BROADWAY, New York, NY","10034",40.87043217,-73.91511658
"766","70 72 MEAT & PRODUCE CORP","70 72 NAGLE AVE, New York, NY","10040",40.86021701,-73.92848034
"767","HWANG SO 857 CORP","857 2ND AVE STORE 11, New York, NY","10017",40.75232781,-73.9703694
"768","GG WEST 66TH LLC","155A W 66TH ST, New York, NY","10023",40.77424178,-73.98311519
"769","NINTH AVENUE GROCERY INC","486 9TH AVE, New York, NY","10018",40.755367,-73.99485409
"770","L A 2570 GROCERY CORP","2570 ADAM CLAYTON POWELL JR BV, New York, NY","10039",40.82394296,-73.93750797
"771","FIRST TOP FOOD INC","22 1/2 CATHERINE ST, New York, NY","10038",40.71288646,-73.99712963
"772","SAI BABA QUICK STOP INC","1585 2ND AVE, New York, NY","10028",40.77537359,-73.95355033
"773","WESTSIDE STOP ONE DELI CORP","700 AMSTERDAM AVE, New York, NY","10025",40.79273614,-73.97132954
"774","111 HUDSON MARKET INC","111 HUDSON ST, New York, NY","10013",40.71964296,-74.00862345
"775","CITY GOURMET & GROCERY CORP","535 9TH AVE, New York, NY","10018",40.75697458,-73.99367133
"776","325 DREAMLAND INC","325 2ND AVE, New York, NY","10003",40.73533081,-73.98275611
"777","141 DELI GROCERY INC","621A LENOX AVE, New York, NY","10037",40.81795253,-73.93814982
"778","5TH AVENUE WALI INC","224 5TH AVE, New York, NY","10001",40.74387743,-73.98787478
"779","COCO GARDEN CORP","19 WAVERLY PLACE, New York, NY","10003",40.73022214,-73.99455306
"780","2589 WESTSIDE MARKET LLC","2589 BROADWAY, New York, NY","10025",40.79564801,-73.97117555
"781","55 FULTON MARKET INC","55 FULTON ST, New York, NY","10038",40.70841287,-74.00478906
"782","SEVENTEENTH STREET GOURMET INC","134 8TH AVE, New York, NY","10011",40.74139861,-74.00131094
"783","MALT AND MOLD INC","221 E BROADWAY, New York, NY","10002",40.7143031,-73.98720243
"784","DUANE READE INC","100 BROADWAY, New York, NY","10005",40.7082745,-74.01126763
"785","BIG P CORP","148 E 103RD ST, New York, NY","10029",40.79029473,-73.94764897
"786","NEW YORK UNIVERSITY BAKERY INC","11 PARK PL, New York, NY","10007",40.71277892,-74.00819633
"787","UNIV 45 FRUIT & VEGETABLE CORP","45 UNIVERSITY PL, New York, NY","10003",40.73238648,-73.99408602
"788","J & F MEAT MARKET CORP","1975 AMSTERDAM AVE, New York, NY","10032",40.83330001,-73.94171352
"789","NDL FOOD INC","110 LAFAYETTE ST, New York, NY","10013",40.71819961,-74.00072213
"790","GORIS GROCERS MADISON AVE CORP","1660 MADISON AVE, New York, NY","10029",40.7963903,-73.94746112
"791","2082 MADISON FOOD CORP","2082 MADISON AVE, New York, NY","10037",40.80954077,-73.93786477
"792","YOSEF A ALKUTEENI","4500 BROADWAY, New York, NY","10040",40.85784491,-73.93204699
"793","LENOX EXPRESS DELI CORP","551 LENOX AVE, New York, NY","10037",40.81603738,-73.93953578
"794","GG SOHO LLC","489 BROOME ST, New York, NY","10013",40.72303058,-74.00239617
"795","BLEECKER FINEST CORP","171 BLEECKER ST, New York, NY","10012",40.72880711,-74.00045295
"796","SHAMLAN NUMBER 1 DELI CORP","537 LENOX AVE, New York, NY","10037",40.81545553,-73.93995403
"797","SRISAI CONVENIENCE INC","35 W 31ST ST, New York, NY","10001",40.74723707,-73.98759005
"798","OXFORD DELI GROCERY INC","2035 1ST AVE, New York, NY","10029",40.78895328,-73.94054223
"799","NATURAL CHOICE DELI INC","2425 2ND AVE, New York, NY","10035",40.80226445,-73.93393617
"800","MANDZ LLC","314 E 106TH STREET WEST STORE, New York, NY","10029",40.79045314,-73.94204579
"801","DUANE READE INC","245 1ST AVE, New York, NY","10003",40.73162654,-73.98235993
"802","HOME PLATE FOOD CORP","210 220 NAGLE AVE, New York, NY","10034",40.86231197,-73.92281561
"803","CHICKPEA AT PENN INC","234 W 34TH ST, New York, NY","10001",40.75140326,-73.99173046
"804","SKY TING TRADING INC","360 BROOME ST, New York, NY","10013",40.7199438,-73.99548401
"805","WHOLE FOODS MARKET GROUP INC","226 E 57TH ST, New York, NY","10022",40.75997472,-73.96687927
"806","AMEER FOOD CORP","748 ST NICHOLAS AVE, New York, NY","10031",40.82569095,-73.94353694
"807","STATION 800 LLC","800 ST NICHOLAS AVE, New York, NY","10031",40.82736902,-73.94276467
"808","ORGANIC 7 MARKET INC","707 2ND AVE, New York, NY","10016",40.74743659,-73.97392364
"809","SMART DELI GROCERY INC","4380 BROADWAY, New York, NY","10033",40.85437993,-73.93359467
"810","PINAZ ENTERPRISE INC","488 6TH AVE, New York, NY","10011",40.73623336,-73.99766298
"811","CHELSEA MARKET BASKETS LTD","75 9TH AVENUE, New York, NY","10011",40.74184603,-74.00477537
"812","PRESBYTERIAN 164 DELI CORP","1081 ST NICHOLAS AVE, New York, NY","10032",40.83768543,-73.93999123
"813","YOGI KRUPA 1061 INC","1061 2ND AVE, New York, NY","10022",40.75848713,-73.96587065
"814","W J DELI GROCERY CORP","4648 BROADWAY, New York, NY","10040",40.86176783,-73.93011226
"815","ALIM DELI & GROCERY CORP","102 E 103RD ST, New York, NY","10029",40.79089573,-73.94909163
"816","CVS ALBANY LLC","420 5TH AVE, New York, NY","10018",40.75095267,-73.98269289
"817","135TH STREET DELI & GROCERY CORP","266 W 135TH ST, New York, NY","10030",40.81611422,-73.9456094
"818","186 GROCERY CORP","547 W 186TH ST, New York, NY","10033",40.85190099,-73.93034774
"819","CVS ALBANY LLC","500 W 23RD ST, New York, NY","10011",40.74769052,-74.00418601
"820","JARABACOA DELI FOOD CORP","421 AUDUBON AVE, New York, NY","10033",40.85181653,-73.93007973
"821","FAIRWAY KIPS BAY LLC","542 2ND AVE, New York, NY","10016",40.74217044,-73.97741882
"822","MY MUM DELI GROCERY CORP","1548 MADISON AVE, New York, NY","10029",40.79267626,-73.95017283
"823","NAGI A ISMAIL","600 W 161ST ST, New York, NY","10032",40.83661308,-73.94318225
"824","7 ELEVEN INC","111 JOHN ST, New York, NY","10038",40.70767343,-74.00574895
"825","GMRS CORPORATION","518 AMSTERDAM AVE, New York, NY","10024",40.78697902,-73.97551874
"826","MPM ENTERPRISES HOUSTON INC","240 E HOUSTON ST, New York, NY","10002",40.7222874,-73.98622556
"827","S M CONVENIENCE INC","86 88 STANTON ST, New York, NY","10002",40.72149373,-73.9886417
"828","CRIMSON & WHITE MARKETS INC","140 W 57TH ST, New York, NY","10019",40.76481363,-73.97835671
"829","JCS MARKET CORP","1305 3RD AVE, New York, NY","10021",40.77154992,-73.95927208
"830","DUANE READE INC","300 E 23RD ST, New York, NY","10010",40.737848,-73.98082163
"831","KATAGIRI & CO INC","224 E 59TH ST, New York, NY","10022",40.76129296,-73.96598526
"832","MADHAV CONVENIENCE AND GROCERY INC","49 W 72ND ST, New York, NY","10023",40.77680375,-73.97733696
"833","MY SWEET DELI MARKET CORP","187 SHERMAN AVE AKA 590 W 204, New York, NY","10034",40.86507981,-73.92193875
"834","188TH FOOD CORP","341-C WADSWORTH AVE, New York, NY","10040",40.85545015,-73.93084698
"835","BJ MAGAZINES INC","200 VARICK ST, New York, NY","10014",40.72788682,-74.00540647
"836","SAL NAPOLITANO","239 E 14TH ST, New York, NY","10003",40.73291139,-73.98629356
"837","J&F GOURMET DELI CORP","2290 FREDERICK DOUGLASS BLVD, New York, NY","10027",40.80887823,-73.9520971
"838","PRAMUKH DELI & GROCERY INC","195 9TH AVE, New York, NY","10011",40.74580039,-74.00181675
"839","SHREE YAMUNAKRUPA CORP","215 BOWERY, New York, NY","10002",40.72162094,-73.99343917
"840","GENTILE'S FINE FOODS CORP","1041 MADISON AVE, New York, NY","10075",40.77672935,-73.96180458
"841","900 PARKSIDE GOURMET DELI INC","900 COLUMBUS AVE, New York, NY","10025",40.79792462,-73.96382048
"842","CAMILA FOOD CENTER CORP","616 W 207TH ST, New York, NY","10034",40.867718,-73.92123133
"843","SYED ASAD AHMAD & SALMA AHMAD","555 W 42ND ST, New York, NY","10036",40.7603549,-73.99719854
"844","NYC SMOKES & MORE INC","104 MACDOUGAL ST, New York, NY","10012",40.72932405,-74.00105321
"845","DAINOBU USA INC","36 W 56TH ST, New York, NY","10019",40.76278074,-73.97562885
"846","GREEN GARDEN DELI INC","340 LENOX AVE, New York, NY","10027",40.80905483,-73.94444304
"847","K AND K FOOD CORP","265 CHERRY ST, New York, NY","10002",40.71134342,-73.98863676
"848","RAY CHIANG","302 E 52ND ST, New York, NY","10022",40.75607092,-73.96747858
"849","RAMSES II DELI CORP","732 10TH AVE, New York, NY","10019",40.76466013,-73.99178519
"850","REYCO SUPERMARKETS LLC","1635 LEXINGTON AVE, New York, NY","10029",40.79046266,-73.94758761
"851","DELICIOUS MARKET INC","20 E 16TH ST, New York, NY","10003",40.73715967,-73.99226904
"852","BEST GOURMET DELI GROCERY INC","896 AMSTERDAM AVE, New York, NY","10025",40.79904168,-73.96670945
"853","K & K FOOD DELI CORP","57 MARKET ST, New York, NY","10002",40.71209331,-73.99431857
"854","S MARKET AND GROCERY INC","350 9TH AVE, New York, NY","10001",40.75092114,-73.9980847
"855","EZ GROCERY INC","4021 7TH AVE, New York, NY","11232",40.64792102,-74.0002013
"856","ANAN GOURMET DELI CORP","2391 FREDERICK DOUGLASS BLVD, New York, NY","10027",40.81210977,-73.94973356
"857","A TO Z ON 8TH INC","711 8TH AVE, New York, NY","10036",40.75896752,-73.98850056
"858","RALPH & NASH DELI CORP","352 W 116TH ST, New York, NY","10026",40.80506398,-73.95690613
"859","HIGHLINE DELI II CORP","83 CANAL ST, New York, NY","10002",40.71535546,-73.99341455
"860","FAIRWAY CHELSEA LLC","766 AVENUE OF THE AMERICAS, New York, NY","10010",40.74462024,-73.99153998
"861","7 ELEVEN INC","403 GRAND ST, New York, NY","10002",40.71589213,-73.9865271
"862","121 CONVENIENCE DELI CORP","121 W 116TH ST, New York, NY","10026",40.80239688,-73.95055609
"863","1ST AVE FRUIT & VEGETABLE INC","485 1ST AVE, New York, NY","10016",40.74020982,-73.97610565
"864","1978 FIRST AVENUE NEWS STAND CORP","1978 1ST AVE, New York, NY","10029",40.78734873,-73.94171008
"865","CVS ALBANY LLC","800 10TH AVE, New York, NY","10019",40.76683938,-73.99019964
"866","RIAD HASSAN MOHAMMED ALI","2033 1ST AVE, New York, NY","10029",40.78891409,-73.94057076
"867","135 W 3RD ST RETAIL CORP","135 W 3RD ST, New York, NY","10012",40.73055914,-74.00039144
"868","JAZZ GOURMET AT 106 ST CORP","51 W 106TH ST, New York, NY","10025",40.79866018,-73.96150725
"869","GREAT FOOD GOURMET DELI #2 INC","566 W 126TH ST, New York, NY","10027",40.81585266,-73.95717884
"870","DELANCEY'S LUDLOW LLC","95 DELANCEY ST, New York, NY","10002",40.71871479,-73.98907048
"871","200 CANDY CORP","200 DYCKMAN ST, New York, NY","10040",40.86496459,-73.92690593
"872","RIVERSIDE GOURMET MARKET INC","3779 BROADWAY, New York, NY","10032",40.83366915,-73.94529449
"873","NYC SMOKE SHOP & GROCERY CORP","809 8TH AVE - STORE #5, New York, NY","10019",40.76184472,-73.98640236
"874","CHINATOWN SUPERMARKET OF MANHATTAN INC","109 E BROADWAY, New York, NY","10002",40.71380705,-73.99304443
"875","300 8TH AVENUE FOOD CORP","300 8TH AVE, New York, NY","10001",40.74659098,-73.99752179
"876","F & L MINI MARKET CORP","1690 LEXINGTON AVE, New York, NY","10029",40.7922516,-73.94627483
"877","431 FOOD MARKET CORP","431 W 37TH ST UNIT A, New York, NY","10018",40.75602962,-73.99666882
"878","DUANE READE INC","711 3RD AVE, New York, NY","10017",40.75240678,-73.97323357
"879","ALEX GOURMET DELI INC","741 ST NICHOLAS AVE, New York, NY","10031",40.82534071,-73.94378963
"880","CUENCA LOPEZ CORP","2298 AMSTERDAM AVE, New York, NY","10033",40.84356937,-73.93421605
"881","FREESIA FARM INC","802 LEXINGTON AVE, New York, NY","10065",40.76407994,-73.96682583
"882","SPACE 86 CORP","524 COLUMBUS AVE, New York, NY","10024",40.78595028,-73.97256167
"883","CVS ALBANY LLC","360 6TH AVE, New York, NY","10009",40.73262909,-74.00023497
"884","GRAND ADVANCE TRADING INC","274 GRAND ST, New York, NY","10002",40.71787621,-73.9929544
"885","CASA BLANCA GOURMET FOODS INC","2 W 125TH ST, New York, NY","10027",40.80644712,-73.94234919
"886","MANAJ 103 BODHAN INC","103 W 14TH ST, New York, NY","10011",40.73739319,-73.99694003
"887","9TH AVE GROCERY CORP","572 9TH AVE, New York, NY","10036",40.75816337,-73.99280057
"888","CITARELLA WEST LLC","2135 BROADWAY, New York, NY","10023",40.7809537,-73.98143767
"889","CITARELLA EAST LLC","1313 1315 3RD AVE, New York, NY","10021",40.7718556,-73.95904405
"890","7 ELEVEN INC","246 W 23RD ST, New York, NY","10011",40.74465573,-73.99697458
"891","GOOD NATURE 1045 INC","1045 2ND AVE, New York, NY","10022",40.75801491,-73.96622103
"892","YORK FRESH FOODS INC","1431 YORK AVE, New York, NY","10021",40.76936302,-73.95189494
"893","128 P & L DELI GROCERY CORP","128 AUDUBON AVE, New York, NY","10032",40.84268995,-73.93675082
"894","1938 MADISON INC","1938 MADISON AVE, New York, NY","10035",40.80537519,-73.94090718
"895","KING MEAT CORP","3871 BROADWAY, New York, NY","10032",40.83698006,-73.94286281
"896","111 FULTON ST RETAIL CORP","111 FULTON ST, New York, NY","10038",40.70987758,-74.00705836
"897","GRAB & GO GOURMET DELI INC","3920 BROADWAY, New York, NY","10032",40.83841416,-73.94155405
"898","CVS ALBANY LLC","241 W 57TH ST, New York, NY","10019",40.76634291,-73.9820175
"899","MY WAY CONVENIENCE SMOKE SHOP INC","1594 3RD AVE, New York, NY","10128",40.78100274,-73.95235879
"900","1769 CENTRAL FOODS LLC","1769 2ND AVE, New York, NY","10128",40.78181617,-73.94884722
"901","MASSOLA MANAGEMENT 881 CORP","881 8TH AVE, New York, NY","10019",40.7638828,-73.98492711
"902","MASSOLA MANAGEMENT 368 CORP","368 8TH AVE, New York, NY","10001",40.7486328,-73.99603586
"903","SUNSET FOOD CORP","689 10TH AVE, New York, NY","10036",40.76300555,-73.99300392
"904","ASHANI ENTERPRISE INC","1160 1ST AVE, New York, NY","10065",40.76245446,-73.95987803
"905","EAST VILLAGE GROCERY & SMOKE SHOP INC","177 1ST AVE, New York, NY","10003",40.72935096,-73.98401101
"906","3 STAR DELI GROCERY INC","1045 ST NICHOLAS AVE, New York, NY","10032",40.83634341,-73.94001424
"907","DELANCEY'S ORCHARD LLC","97 STANTON ST, New York, NY","10002",40.72133606,-73.98813149
"908","ADAM'S DELI & CONVENIENCE INC","418 E 14TH ST, New York, NY","10009",40.73116311,-73.98211872
"909","MELIN FOOD CORP","1314 ST NICHOLAS AVE, New York, NY","10033",40.84596025,-73.93617841
"910","NYC OPTIMO CORP","57 1ST AVE, New York, NY","10003",40.72495401,-73.98721586
"911","FOOD GOURMET DELI GROCERY INC","570 W 189TH ST, New York, NY","10040",0,0
"912","FOOD GOURMET DELI GROCERY INC","570 W 189TH ST, New York, NY","10040",40.85397153,-73.9292653
"913","HUDSON & CHARLES INC","524 HUDSON ST, New York, NY","10014",40.73392175,-74.00625701
"914","JSK PRODUCE INC","1368 YORK AVE, New York, NY","10021",40.76749468,-73.95325507
"915","MIDTOWN CONVENIENCE STORE INC","454 9TH AVE, New York, NY","10018",40.75420915,-73.99569057
"916","MIDTOWN CONVENIENCE STORE INC","454 9TH AVE, New York, NY","10018",0,0
"917","LAVI GLATT INC","805 AVENUE U, New York, NY","11223",40.59608428,-73.98125624
"918","PRESBYTERIAN DELI 57 CORP","57 PITT ST, New York, NY","10002",40.71735148,-73.98296904
"919","87 ST DELI INC","1665 1ST AVE, New York, NY","10028",40.77742503,-73.94895587
"920","GENOVESE DRUG STORES INC","225 LIBERTY ST, New York, NY","10281",NA,NA
"921","ABC FOOD CENTER INC","3605 BROADWAY, New York, NY","10031",40.82853555,-73.9490276
"922","BEST WESTERN GOURMET CORP","686 10TH AVE, New York, NY","10019",40.76344959,-73.99267867
"923","RITE AID OF NEW YORK INC","76 PIKE ST, New York, NY","12771",41.37543093,-74.6924831
"924","DUKE ELLINGTON GOURMET CORP","934 COLUMBUS AVE, New York, NY","10025",40.79913394,-73.96292524
"925","FIVE WAYS GROCERY CORP","469 W 157 STREET, New York, NY","10032",40.83245113,-73.94103315
"926","10TH STREET FOOD CORP","392 E 10TH ST, New York, NY","10009",40.72601018,-73.97786952
"927","DUANE READE INC","450 7TH AVE, New York, NY","10123",40.75124339,-73.99089536
"928","MIS HIJOS DELI CORP","2401 2ND AVE, New York, NY","10035",40.80145225,-73.93452973
"929","GUASIMITO FOOD CORP","1640 ST NICHOLAS AVE, New York, NY","10040",40.8561928,-73.92869118
"930","MRS GREEN'S OF 585 HUDSON INC","585 HUDSON ST, New York, NY","10014",40.73655023,-74.00582607
"931","501 DELI CORP","501 W 125TH ST, New York, NY","10027",40.81347842,-73.95626784
"932","EDWIN FOOD CORP","2 W 111TH ST, New York, NY","10026",0,0
"933","AMARILIS A LEDESMA","21 CONVENT AVE, New York, NY","10027",0,0
"934","SADAM M SAAD","665 LENOX AVE, New York, NY","10037",0,0
"935","EAST N WEST DELI GROCERY CORP","501 W 145TH ST, New York, NY","10031",0,0
"936","PRAMUKH 23 INC","23 3RD AVE, New York, NY","10003",0,0
"937","QUICKPICK NEWS & CIGAR INC","72 NASSAU ST #3 GROUND FL, New York, NY","10038",0,0
"938","FOODMOOD LLC","400 E 23RD ST, New York, NY","10010",0,0
"939","ROTANA SMOKE SHOP CORP","188 ORCHARD ST, New York, NY","10002",40.72198,-73.98797
"940","SATSANG 2 INC","1239 2ND AVE, New York, NY","10065",40.7643,-73.96173
"941","SATSANG 3 INC","142 DELANCEY ST, New York, NY","10002",40.71826,-73.98674
"942","EAST 86TH DELI AND GROCERY CORP","355 E 86TH ST, New York, NY","10028",40.77737,-73.95039
"943","CVS ALBANY LLC","2182 BROADWAY, New York, NY","10024",40.7825,-73.98025
"944","MADISON OK MARKET INC","1291 MADISON AVE, New York, NY","10128",40.78442,-73.9561
"945","A & F TOBACCO & GROCERY INC","356 W 145TH ST, New York, NY","10039",40.82372,-73.94415
"946","HIGHLINE DELI CORP","329 10TH AVE, New York, NY","10001",40.75165,-74.00161
"947","SHRIJIKRUPA CORP","72 KENMARE ST, New York, NY","10012",40.72098,-73.99622
"948","LENNY & STEVE MARKET LLC","402 W 47TH ST, New York, NY","10036",40.76162,-73.99078
"949","HERMANA MIRABAL INC","1968 2ND AVE, New York, NY","10029",40.78744,-73.94425
"950","186 GROCERY II CORP","1700 AMSTERDAM AVE, New York, NY","10031",40.82477,-73.9483
"951","LA FAMILIA MINI GROCERY INC","4844 BROADWAY, New York, NY","10034",0,0
"952","WEST VILLAGE GROCERY INC","31 JANE STREET, New York, NY","10014",40.73818,-74.00415
"953","CVS ALBANY LLC","298 MULBERRY ST, New York, NY","10012",40.72508,-73.99441
"954","JOSE R DURAN MORONTA","501 W 169TH ST, New York, NY","10032",NA,NA
"955","AKSHAR 61 INC","61 1ST AVE, New York, NY","10003",40.72519,-73.9874
"956","LUCKY HESTER CORNER GROCERY STORE INC","119 HESTER ST, New York, NY","10002",40.71679,-73.99339
"957","J AND P LOBBY STAND INC","601 W 26TH ST, New York, NY","10001",0,0
"958","DUANE READE INC","133 141 DYCKMAN ST, New York, NY","10040",0,0
"959","WHOLESOME FACTORY INC","530 532 MAIN ST, New York, NY","10044",0,0
"960","HARLEM 421 FOODS CORP","421 W 125TH ST, New York, NY","10027",40.81212,-73.95473
"961","DIANA GROCERY DELI CORP","1645 SAINT NICHOLAS AVE, New York, NY","10040",40.85649,-73.92857
"962","7 ELEVEN INC","600 W 178TH ST, New York, NY","10033",40.84731,-73.93523
"963","216 SAL DELI & GROCERY CORP","216 AVENUE B, New York, NY","10009",40.7289,-73.97865
"964","S & A VILLAGE CORP","136 1ST AVE, New York, NY","10009",0,0
"965","7 ELEVEN INC","2256 2ND AVE, New York, NY","10029",40.7967,-73.93761
"966","302 CHELSEA FOODS INC","302 8TH AVE, New York, NY","10001",40.7466,-73.99711
"967","SHRI HARIAUM CORP","385 CANAL ST, New York, NY","10013",40.72171,-74.00468
"968","WEST HARLEM GROCERY CORP","283 W 115TH ST, New York, NY","10026",40.80359,-73.95533
"969","JACOB GOURMET FOOD INC","601 W 151ST ST, New York, NY","10031",40.83033,-73.94779
"970","PUCHITO GROCERY INC","2122 2ND AVE, New York, NY","10029",40.79253,-73.94067
"971","109 SPICY GOURMET DELI INC","990 AMSTERDAM AVE, New York, NY","10025",40.80237,-73.96436
"972","SULAI MINIMART INC","1737 2ND AVE, New York, NY","10128",40.78038,-73.95026
"973","128 EDGECOMBE DELI CORP","128 EDGECOMBE AVE, New York, NY","10030",40.82083,-73.9448
"974","CLINTON GOURMET CORP","648 10TH AVE, New York, NY","10036",40.76182,-73.99379
"975","BEST SERVICE STATION INC","2161 AMSTERDAM AVE, New York, NY","10032",40.83895,-73.93717
"976","IN & OUT TOBACCO DELI CORP","1020 6TH AVE, New York, NY","10018",40.75231,-73.98556
"977","LOS ALAMOS MEAT & PRODUCES INC","235 E 106TH ST, New York, NY","10029",40.79128,-73.94387
"978","327 GOURMET DELI CORP","327 1ST AVE, New York, NY","10003",40.73444,-73.98039
"979","M & F FOOD CORP","568 W 185TH ST, New York, NY","10033",0,0
"980","ASA DELICATESSEN & GROCERY STORE INC","545 W 125TH ST, New York, NY","10027",40.81471,-73.95726
"981","LA LOMITA MEXICAN DELI CORP","3868 10TH AVE, New York, NY","10034",40.86459,-73.91903
"982","CIBAO FOOD CENTER CORP","2059 7TH AVE, New York, NY","10027",40.80737,-73.94901
"983","CVS ALBANY LLC","636 6TH AVE, New York, NY","10011",40.74041,-73.99407
"984","74 84 WESTSIDE MARKET LLC","74-84 3RD AVE, New York, NY","10003",40.73161,-73.98848
"985","119 A R GROCERY CORP","119 ELLWOOD ST, New York, NY","10040",40.86138,-73.92907
"986","JUANITOS GROCERY CORP","144 SHERMAN AVE, New York, NY","10034",40.86474,-73.92362
"987","SERVICE AMERICA CORPORATION","655 W 34TH ST, New York, NY","10001",40.7566,-74.00377
"988","7TH AVE DELI GROCERY CORP","2417 7TH AVE, New York, NY","10030",40.8191,-73.94073
"989","124 DELI GROCERY INC","124 E BROADWAY, New York, NY","10002",40.71407,-73.99211
"990","MEIR & COMPANY INC","170 AVE A, New York, NY","10009",40.7282,-73.98163
"991","CVS ALBANY LLC","65 5TH AVE, New York, NY","10003",40.68058,-73.97731
"992","C & F MARKET PLACE CORP","120 ESSEX ST, New York, NY","10002",40.6815,-73.88341
"993","STANTON SMOKE & CONVENIENCE INC","100 STANTON ST, New York, NY","10002",40.72137,-73.98792
"994","HSP NYC CORP","21 SAINT MARKS PLACE, New York, NY","10003",40.68265,-73.98155
"995","AVENUE A CLASSIC FOODS INC","115 AVENUE A, New York, NY","10009",40.72637,-73.98365
"996","BURGUNDY & WHITE MARKETS INC","1211 MADISON AVE, New York, NY","10128",40.78159,-73.95788
"997","239 DELI CORP","239 8TH AVE, New York, NY","10011",NA,NA
"998","FIRST AVE & 117TH ST INC","2276 1ST AVE, New York, NY","10035",40.79664,-73.93486
"999","PRAMUKH 227 INC","227 1ST AVE, New York, NY","10003",40.73105,-73.98314
"1000","EMPIRE STATE DELI GROCERY INC","1665 MADISON AVE, New York, NY","10029",40.79655,-73.94697
"1001","K H LEX INC","971 LEXINGTON AVE, New York, NY","10021",40.76927,-73.9627
"1002","WHOLE FOODS MARKET GROUP INC","1551 3RD AVE, New York, NY","10128",40.77947,-73.95339
"1003","CHANG SHUN MARKET INC","57 E BROADWAY, New York, NY","10002",40.7134,-73.99535
"1004","DAINOBU USA INC","498 AVENUE OF AMERICAS, New York, NY","10011",0,0
"1005","844 DELI GROCERY INC","844 AMSTERDAM AVE, New York, NY","10025",40.79752,-73.96822
"1006","2252 5TH AVE FOOD INC","2252 5TH AVE, New York, NY","10037",40.81427,-73.93684
"1007","MERCEDES HOUSE MARKET CORP","550 W 54TH ST, New York, NY","10019",40.76784,-73.99169
"1008","UPTOWN FOOD CENTER CORP","91B PINEHURST AVE, New York, NY","10033",40.85081,-73.93905
"1009","DUANE READE INC","310 E 2ND ST, New York, NY","10009",40.72023,-73.97884
"1010","EL FUTURO DELI CORP","2375 79 2ND AVE, New York, NY","10035",0,0
"1011","MI PAIS SUPERMARKET INC","3361 BROADWAY, New York, NY","10031",40.82086,-73.95472
"1012","ADEN EXPRESS DELI INC","3579A BROADWAY, New York, NY","10031",0,0
"1013","CJ RESTAURANT COMPANY INC","12 E 44TH ST, New York, NY","10017",40.75419,-73.97917
"1014","7 ELEVEN INC","1642 LEXINGTON AVE, New York, NY","10029",40.7909,-73.94757
"1015","AVE D & 8 ST DELI CORP","403 E 8TH ST, New York, NY","10009",40.72379,-73.97602
"1016","RIZQ DELI CORP","1776 AMSTERDAM AVE, New York, NY","10031",40.8271,-73.94631
"1017","LA RUBIA DELI CORP","2085 AMSTERDAM AVE, New York, NY","10032",40.83659,-73.93887
"1018","3RD ST MINI MARKET CORP","23 AVE D, New York, NY","10009",NA,NA
"1019","9 11 DELI CORP","9 W 110TH ST, New York, NY","10026",40.79747,-73.94992
"1020","NABEEL & LAREEN CORP","1974 7TH AVE, New York, NY","10026",40.80519,-73.95126
"1021","181 GERMAN DELI INC","815 W 181ST ST, New York, NY","10033",40.85139,-73.93881
"1022","PRAMUKH 31 INC","31 ST MARKS PL, New York, NY","10003",40.72906,-73.98817
"1023","ALI 2023 DELI & GROCERY LLC","2023 7TH AVE, New York, NY","10027",40.80641,-73.94968
"1024","MIA DELI GROCERY CORP","2085 LEXINGTON AVE, New York, NY","10035",40.80492,-73.93694
"1025","QUICK STOP ON FIRST AVE INC","1293 1ST AVE, New York, NY","10021",40.76631,-73.95742
"1026","SABRINA CONVENIENT STORE INC.","1490 1ST AVE, New York, NY","10075",40.7713,-73.95307
"1027","ALLY'S SMOKES AND MAGAZINES INC","158 W 30TH ST, New York, NY","10001",NA,NA
"1028","GURU DE OAT INC","433 W 34TH ST, New York, NY","10008",40.75429,-73.99772
"1029","J L I FOOD CORP","1607 ST NICHOLAS AVE, New York, NY","10040",0,0
"1030","YORGANIC HEALTH MART INC","1695 1ST AVE, New York, NY","10128",40.77809,-73.94854
"1031","182 5TH AVE RETAIL CORP","182 5TH AVE, New York, NY","10010",40.74135,-73.99012
"1032","105 DELI & GRILL INC","922 AMSTERDAM AVE, New York, NY","10025",40.79989,-73.96619
"1033","CVS ALBANY LLC","5 PENN PLAZA, New York, NY","10001",40.74955,-73.99159
"1034","CVS ALBANY LLC","1172 3RD AVE, New York, NY","10065",40.76732,-73.96246
"1035","GG TRIBECA LLC","366 BROADWAY, New York, NY","10013",40.71749,-74.00337
"1036","T&T MEATS AND PRODUCE INC","505 W 162ND ST, New York, NY","10032",40.83634,-73.94009
"1037","WAI WAH MARKET INC","17 19 CATHERINE ST, New York, NY","10038",0,0
"1038","2567 BROADWAY INC","2567 BROADWAY, New York, NY","10025",40.79495,-73.97177
"1039","JACOB & JACOB DELI CORP","755 9TH AVE, New York, NY","10019",40.76413,-73.98887
"1040","BRADHURST DELI CORP","242 BRADHURST AVE, New York, NY","10039",40.829,-73.93863
"1041","JOCHY CAFE CORP","135 SHERMAN AVE, New York, NY","10034",40.86424,-73.92403
"1042","A & F DELI CORP","3475 BROADWAY, New York, NY","10031",40.82443,-73.95212
"1043","HU & FONG TRADE INC","255 W 36TH ST, New York, NY","10018",40.75326,-73.99145
"1044","O & B RANCH DELI GROCERY CORP","559 W 158TH ST, New York, NY","10032",40.83422,-73.94314
"1045","CENTRAL DELI 1 INC","515 2ND AVE, New York, NY","10016",40.74152,-73.97855
"1046","KING TOWER DELI CORP","100 LENOX AVE, New York, NY","10026",40.8013,-73.94967
"1047","17 FOOD MARKET INC","116 7TH AVE, New York, NY","10011",40.74043,-73.99863
"1048","26 TOBACCO SHOP CORP","26 AVENUE C, New York, NY","10009",40.7214,-73.9807
"1049","HARLEM NATURALLY INC","2053 FREDERICK DOUGLASS BLVD, New York, NY","10026",40.80115,-73.95783
"1050","7 ELEVEN INC","256 W 116TH ST, New York, NY","10026",40.80411,-73.95513
"1051","JIAJIA 99 & UP INC","81 BAYARD ST, New York, NY","10013",40.71567,-73.99879
"1052","VAQUERO DELI GROCERY CORP","234 E 116 ST, New York, NY","10029",40.79709,-73.93878
"1053","DON MARTO MINI MARKET CORP","2143 AMSTERDAM AVE, New York, NY","10032",40.83858,-73.93742
"1054","ST PHILOPATER MARCURIUS INC","856 AMSTERDAM AVE, New York, NY","10025",40.79788,-73.96795
"1055","NOBEL DELI INC","523 GRAND ST, New York, NY","10002",40.7143,-73.98178
"1056","HUDSON GROUP HG RETAIL LLC","PENN STATION 34B AMTRAK LEVEL, New York, NY","10121",0,0
"1057","HUDSON GROUP HG RETAIL LLC","PENN STATION 34B AMTRAK LEVEL, New York, NY","10001",0,0
"1058","MAXDELIVERY 2 LLC","318 326 W 39TH ST, New York, NY","10018",0,0
"1059","HUDSON GROUP HG RETAIL LLC","PENN STATION 34B AMTRAK LEVEL, New York, NY","10001",0,0
"1060","M & W 1 GOURMET DELI CORP","53 VERMILYEA AVE, New York, NY","10034",40.8652,-73.92402
"1061","FM GROCERY CORP","501 W 133RD ST, New York, NY","10027",40.81766,-73.95322
"1062","EMPIRE GOURMET DELI GROCERY CORP","432 2ND AVE, New York, NY","10010",40.73893,-73.98005
"1063","ALLEVA DAIRY INC","188 GRAND ST, New York, NY","10013",40.71949,-73.99709
"1064","DUANE READE INC","122 E 42ND ST, New York, NY","10168",40.6528,-73.93853
"1065","LINDO AMANECER GROCERY CORP","4099 BROADWAY, New York, NY","10032",40.84467,-73.93891
"1066","NEW TRUE BLUE DELI GROCERY CORP","2741 FREDERICK DOUGLASS BLVD, New York, NY","10039",40.82372,-73.94166
"1067","FENG SHENG BABY PRODUCT INC","1322 SAINT NICHOLAS AVE, New York, NY","10033",40.84617,-73.93595
"1068","7 ELEVEN INC","1683 1ST AVE, New York, NY","10128",40.77782,-73.94904
"1069","7 ELEVEN INC","1412 1ST AVE, New York, NY","10021",40.76927,-73.95483
"1070","GREAT VALUE CONVENIENCE INC","926 2ND AVE, New York, NY","10022",40.75424,-73.96847
"1071","876 NEW MARKET CORP","876 6TH AVE, New York, NY","10001",40.74786,-73.98884
"1072","QMART INC","4311 BROADWAY, New York, NY","10033",40.85203,-73.93518
"1073","MID TOWN FARM STAND INC","875 6TH AVE, New York, NY","10001",40.7482,-73.98934
"1074","HANA MART NY CORP","38 W 32ND ST, New York, NY","10001",40.74818,-73.9881
"1075","SUNRISE FOOD & CANDY INC","49 COLUMBIA ST, New York, NY","10002",40.71694,-73.98038
"1076","7 ELEVEN INC","2726 FREDERICK DOUGLAS BLVD, New York, NY","10030",40.82253,-73.94173
"1077","CVS ALBANY LLC","51 ASTOR PL, New York, NY","10003",40.72994,-73.99156
"1078","CVS ALBANY LLC","757 3RD AVE, New York, NY","10017",40.75391,-73.97147
"1079","COLUMBUS GROCERS LLC","941 COLUMBUS AVE, New York, NY","10025",40.79926,-73.96247
"1080","LENZS FOOD & CATERING INC","514 E 20TH ST, New York, NY","10009",0,0
"1081","SHINOLA DELI GROCERY CORP","1979 7TH AVE, New York, NY","10026",40.80486,-73.95078
"1082","HG FOOD MARKET INC","4077 BROADWAY, New York, NY","10032",0,0
"1083","561 STRAIGHT DELI GROCERY INC","561 LENOX AVE, New York, NY","10037",40.81662,-73.93957
"1084","LUCKY CHOICE CONVENIENCE INC","118 W 72ND ST, New York, NY","10023",40.77743,-73.97962
"1085","207 GOURMET DELI CORP","207 HENRY ST, New York, NY","10002",40.71381,-73.98725
"1086","SCARLET & WHITE MARKETS INC","1031 1ST AVE, New York, NY","10022",40.75795,-73.96325
"1087","LAZARO GROCERY STORE CORP","666 9TH AVE, New York, NY","10036",40.76108,-73.99033
"1088","NEW LEXINGTON DELI GROCERY CORP","1693 LEXINGTON AVE, New York, NY","10029",40.79232,-73.94587
"1089","LA BODEGA 193 INC","124 FORT GEORGE AVE, New York, NY","10040",40.85676,-73.92754
"1090","COLUMBIA GOURMET DELI CORP","3905 BROADWAY, New York, NY","10032",40.83802,-73.94218
"1091","BIG APPLE FOOD MARKET CORP","219 E BROADWAY, New York, NY","10002",40.71405,-73.98728
"1092","RAY'S SUPER DELI INC","452 HUDSON ST, New York, NY","10014",40.73133,-74.00659
"1093","RAY'S INC I","201 2ND AVE, New York, NY","10003",40.73149,-73.98598
"1094","TRISHA CONVENIENCE INC","156A DYCKMAN ST, New York, NY","10040",40.86352,-73.92606
"1095","DM CHAUDHARI LLC","311 BROADWAY, New York, NY","10007",40.71562,-74.00545
"1096","243 W 34TH ST RETAIL CORP","243 W 34TH ST, New York, NY","10001",40.7518,-73.99212
"1097","YOURS WHOLESOME FOODS INC","159 ESSEX ST, New York, NY","10002",40.72116,-73.98703
"1098","84TH ST CORNER DELI CORP","1624 2ND AVE, New York, NY","10028",40.77659,-73.95245
"1099","WEST MOBIL ON 8TH INC","63 8TH AVE, New York, NY","10014",0,0
"1100","JENNY FOOD CORP","2026 7TH AVE, New York, NY","10027",40.80663,-73.95024
"1101","CITY PARK CONVENIENT STORE INC","96 BAYARD ST, New York, NY","10013",40.71605,-73.99944
"1102","NEW YORK SMOKE SHOP INC","531 9TH AVE, New York, NY","10018",40.75693,-73.99394
"1103","A&A MEAT & PRODUCE CORP","3815 9TH AVE, New York, NY","10034",40.86203,-73.9181
"1104","SHRINATHJI KRUPA LLC","238 LAFAYETTE ST, New York, NY","10012",40.72266,-73.99714
"1105","181 PARK DELI CORP","508 W 181ST ST, New York, NY","10033",40.84833,-73.93171
"1106","BADWAL CORP","194 7TH AVE, New York, NY","10011",40.74311,-73.99659
"1107","ALPHABET CITY INC 1","301 E 4TH ST, New York, NY","10009",40.72228,-73.97991
"1108","LAI LAI MINI MART & DISCOUNT INC","4520 BROADWAY, New York, NY","10040",40.85846,-73.9315
"1109","SPEEDWAY LLC","401 W 207TH ST, New York, NY","10034",40.86387,-73.91699
"1110","DANS SUPREME SUPERMARKETS INC","1175 3RD AVE, New York, NY","10021",40.7673,-73.96217
"1111","INWOOD GROCERY CORP","510 W 218TH ST, New York, NY","10034",40.87129,-73.91466
"1112","DYCKMAN CONVENIENCE INC","100 DYCKMAN ST, New York, NY","10040",40.86172,-73.92505
"1113","HARLEM MARKET INC","2005 3RD AVE, New York, NY","10029",40.79419,-73.94253
"1114","HIGHER GROUNDS DELI INC","83 HAVEN AVE, New York, NY","10032",40.84431,-73.94243
"1115","300 W 145TH K FOOD CORP","300 W 145TH ST, New York, NY","10039",40.82292,-73.94259
"1116","AMBER & WHITE MARKETS INC","1066 3RD AVE, New York, NY","10065",40.7645,-73.96469
"1117","DECENT STORE INC","535 AMSTERDAM AVE, New York, NY","10024",40.78743,-73.97497
"1118","SEVEN SEAS 42ND ST LLC","452 W 43RD ST, New York, NY","10036",40.75968,-73.99368
"1119","SEVEN SEAS 49TH ST LLC","810 8TH AVE, New York, NY","10019",40.76183,-73.98618
"1120","EASY 602 FOOD CORP","3371 BROADWAY, New York, NY","10031",40.82124,-73.95457
"1121","SEVEN SEAS UNION SQUARE LLC","1 UNION SQUARE E, New York, NY","10003",40.73544,-73.99171
"1122","EMERALD & WHITE MARKETS INC","1331 1ST AVE, New York, NY","10021",40.76747,-73.95646
"1123","GOTHAM 1ST AVENUE GOURMET DELI CORP","2165 1ST AVE, New York, NY","10029",40.79342,-73.93752
"1124","UNION SQUARE MARKET CORP","813 BROADWAY, New York, NY","10003",40.73297,-73.99133
"1125","315 FINEST FOOD AND DELI CORP","315 PLEASANT AVE, New York, NY","10035",40.79569,-73.93291
"1126","DELTAURANT CORP","289 HUDSON ST, New York, NY","10013",40.7257,-74.00776
"1127","121 NEW YORK DELI GROCERY CORP","1993 LEXINGTON AVE, New York, NY","10035",40.80205,-73.93895
"1128","CHOITHRAMS INC","111A NASSAU ST, New York, NY","10038",40.71083,-74.00715
"1129","155TH STREET AUTO CENTER INC","3740 BROADWAY, New York, NY","10032",40.83295,-73.94535
"1130","8TH AVENUE DELI & GROCERY INC","2712 8TH AVE, New York, NY","10030",40.82222,-73.94217
"1131","NAMDOR INC","1450 3RD AVE, New York, NY","10028",40.77627,-73.95591
"1132","ADAM 1 FOOD CENTER INC","2657 FREDERICK DOUGLASS BLVD, New York, NY","10030",40.82089,-73.94356
"1133","FRESH FOOD CONVENIENCE INC","1457 YORK AVE, New York, NY","10021",40.77038,-73.95142
"1134","AVE A CONVENIENCE INC","221 AVENUE A, New York, NY","10009",40.7302,-73.98069
"1135","TIMES SQUARE EATERY 48 CORP","167 W 48TH ST, New York, NY","10036",40.75975,-73.98372
"1136","ALEGRIA DELI GROCERY INC","112 NAGLE AVE, New York, NY","10040",40.86092,-73.92704
"1137","TUMBLR SNACK SHOP CORP","1281 SAINT NICHOLAS AVE, New York, NY","10033",40.84506,-73.93706
"1138","JORDIS PLACE CORP","51 CATHERINE ST, New York, NY","10038",40.71171,-73.99673
"1139","A & C SUPERMAS INC","2444 7TH AVE, New York, NY","10030",40.82041,-73.94014
"1140","Z & S DELI & GROCERY CORPORATION","100 W 118TH ST, New York, NY","10026",NA,NA
"1141","STOP I KING GOURMET DELI INC","1775 LEXINGTON AVE, New York, NY","10029",40.79485,-73.9442
"1142","STOP ONE FOOD MARKET INC","748 10TH AVE, New York, NY","10019",40.76514,-73.99123
"1143","DAWA 91 INC","1748 2ND AVE, New York, NY","10128",40.78109,-73.94918
"1144","1886 PARK AVE FOOD CORP","1886 PARK AVE, New York, NY","10035",40.80731,-73.93769
"1145","RITE AID OF NEW YORK INC","99 AVENUE D, New York, NY","10009",40.72465,-73.98138
"1146","2ND AVE GROCERY & SMOKE SHOP INC","455 2ND AVE, New York, NY","10010",40.73968,-73.97983
"1147","TAINO SUNRISE CORP","2253 3RD AVE, New York, NY","10035",40.80188,-73.93691
"1148","VILLAGE SMOKE INC","111 1ST AVE, New York, NY","10003",40.72692,-73.98605
"1149","139 BWAY FOOD MARKET CORP","3425 BROADWAY, New York, NY","10031",40.82292,-73.95334
"1150","3 AVE CONVENIENCE INC","349 3RD AVE, New York, NY","10010",40.74043,-73.98188
"1151","CENCERRO DELI CORP","1403 5TH AVE, New York, NY","10029",40.80008,-73.94667
"1152","LA MARKETA LATINA CORPORATION","1560 SAINT NICHOLAS AVE, New York, NY","10040",40.85349,-73.93046
"1153","65 LENOX DELI CORP","65 LENOX AVE, New York, NY","10026",40.80042,-73.95118
"1154","BROADWAY FAMOUS DELI CORP","4879 BROADWAY, New York, NY","10034",40.86696,-73.92374
"1155","METROPOLITAN GOURMET DELI CORP","1924 2ND AVE, New York, NY","10029",40.78632,-73.94535
"1156","ANWAR HOSSAIN","106 AVENUE B, New York, NY","10009",40.72494,-73.98144
"1157","BEST GOURMET DELI & GRILL INC","494 AUDUBON AVE, New York, NY","10040",40.85426,-73.92849
"1158","YOGI 1672 CORP","1672 YORK AVE, New York, NY","10128",40.77706,-73.94607
"1159","CO HEN KITCHEN INC","405 W 23RD ST, New York, NY","10011",40.74662,-74.00148
"1160","MA NEWS AND CONVENIENCE CORPORATION","1154 LEXINGTON AVE, New York, NY","10075",40.7755,-73.95867
"1161","EAST SIDE CONVENIENCE STORE INC","279 E HOUSTON ST, New York, NY","10002",40.72145,-73.98439
"1162","CANAL SMOKE & NEWS INC","383 CANAL ST, New York, NY","10013",40.72162,-74.00471
"1163","2ND AVE FRESH FOOD CORNER INC","1310 2ND AVE, New York, NY","10065",40.7667,-73.95968
"1164","R J DELI GROCERY CORP","635 W 207TH ST, New York, NY","10034",40.86846,-73.92152
"1165","MURRAY HILL DELI CORP","482 3RD AVE, New York, NY","10016",40.745,-73.97888
"1166","MADISON DELI EXPRESS INC","1550 MADISON AVE, New York, NY","10029",40.79289,-73.95021
"1167","CVS ALBANY LLC","475 6TH AVE, New York, NY","10011",40.66692,-73.98469
"1168","AMSTERDAM TOBACCO HOUSE INC","273 1/2 AMSTERDAM AVE, New York, NY","10023",40.77915,-73.98114
"1169","FOOD U DESIRE CORP","129 135 RIDGE ST, New York, NY","10002",0,0
"1170","2002 BROTHER DELI GROCERY NY CORP","507 W 159TH ST, New York, NY","10032",40.83433,-73.94139
"1171","UPPER WEST CANDY GROCERY INC","2618 BROADWAY, New York, NY","10025",40.79635,-73.97024
"1172","THTG INC","120 ESSEX ST, New York, NY","10002",40.68155,-73.88331
"1173","SAMMY DELI CORP","120 NAGLE AVENUE, New York, NY","10040",40.86101,-73.9268
"1174","BIG APPLE MEAT MARKET INC","529 9TH AVE, New York, NY","10018",40.75688,-73.99398
"1175","E L U DELI GROCERY CORP","900 RIVERSIDE DR, New York, NY","10032",40.83794,-73.94607
"1176","SAMMY MINI MART INC","112 AUDUBON AVE, New York, NY","10032",40.84222,-73.93729
"1177","TRADER JOES EAST INC","200 E 32ND ST, New York, NY","10016",40.74404,-73.9789
"1178","RANDOL A LARA","1 CONVENT AVE, New York, NY","10027",40.81278,-73.95298
"1179","HEALTHY MARKET CORP","632 10TH AVE, New York, NY","10036",40.76138,-73.99397
"1180","173 JR GROCERY STORE INC","615 W 173RD ST, New York, NY","10032",40.84468,-73.93846
"1181","FIRST AVE DELI INC","45 1ST AVE, New York, NY","10003",40.7245,-73.98779
"1182","GHANSHYAM 2 DELI & GROCERY INC","3578 BROADWAY, New York, NY","10031",40.82743,-73.94939
"1183","ABDUR SAMI DELI GROCERY AND HALAL MEAT INC","2262 2ND AVE, New York, NY","10035",40.79707,-73.93751
"1184","NEIGHBORHOOD DELI &GROCERY NY INC","150 STANTON ST, New York, NY","10002",40.72062,-73.98548
"1185","CHERRY GOURMET DELI & GROCERY1 INC","1575 LEXINGTON AVE, New York, NY","10029",40.78888,-73.94857
"1186","NEW PARISIENNE 501 DELI & GROCERY INC","501 COLUMBUS AVE, New York, NY","10024",40.7852,-73.97288
"1187","GBY DELI GROCERY INC","434 E 72ND ST, New York, NY","10021",40.76696,-73.9544
"1188","1983 GOURMET DELI CORP","1983 AMSTERDAM AVE, New York, NY","10032",40.83349,-73.94149
"1189","KYJW CORPORATION","478 3RD AVE, New York, NY","10016",40.74486,-73.97899
"1190","BLEECKER SMOKE &CONVENIENCE INC","177 BLEECKER ST, New York, NY","10012",40.72904,-74.00071
"1191","64 FULTON ST FOOD CORP","64 FULTON ST, New York, NY","10038",40.70883,-74.00531
"1192","SHERMAN GOURMET DELI INC","64 SHERMAN AVE, New York, NY","10040",40.86332,-73.92717
"1193","FIRST AVENUE MARKET INC","2076 1ST AVE, New York, NY","10029",40.79028,-73.93949
"1194","E 10TH ST FINEST DELI & GRILL CORP","162 1ST AVE, New York, NY","10009",0,0
"1195","TOMPKINS FINEST DELI & GRILL CORP","153 AVENUE A, New York, NY","10009",40.72767,-73.98253
"1196","BODEGAS UNLIMITED LLC","101 SHERMAN AVE, New York, NY","10034",0,0
"1197","LOS AMIGOS FOOD CORP","1055 ST NICHOLAS AVE, New York, NY","10032",40.83687,-73.94032
"1198","FENIX GROCERY CORP","140 AUDUBON AVE, New York, NY","10032",40.84312,-73.93663
"1199","WEST 14 CANDY STORE INC","256 W 14TH ST, New York, NY","10011",40.73949,-74.0023
"1200","RUSHIKA INC","15 STANTON ST, New York, NY","10002",40.72249,-73.99223
"1201","3900 FOOD CORP","3900 BROADWAY, New York, NY","10032",40.83776,-73.94196
"1202","SANA DELI CORP","404 8TH AVE, New York, NY","10001",40.74976,-73.99501
"1203","KASSIM FOOD MARKET CORP","1795 AMSTERDAM AVE, New York, NY","10031",40.82761,-73.94566
"1204","WEST 21 DELI AND GROCERY CORP","215 8TH AVE, New York, NY","10011",40.744,-73.99966
"1205","59 5 FRUIT & VEGETABLE CORP","59 5TH AVE, New York, NY","10003",40.73508,-73.99407
"1206","GAZAL INC","300 E 96TH ST, New York, NY","10128",40.78399,-73.94689
"1207","WASHINGTON HEIGHT GROCERY INC","2011C AMSTERDAM AVE, New York, NY","10032",40.83459,-73.94067
"1208","JAMES MARKET INC","45 ST JAMES PL, New York, NY","10038",40.71252,-73.99877
"1209","SAJOMA DELI GROCERY INC","51 VERMILYEA AVE, New York, NY","10034",40.86515,-73.92458
"1210","2015 RUANDY GROCERY CORP","177 W 83RD ST, New York, NY","10024",40.78563,-73.97593
"1211","DUANE READE INC","1 PENN PLAZA, New York, NY","10119",40.75094,-73.99159
"1212","132 VERMILYEA DELI & GROCERY CORP","132 VERMILYEA AVE, New York, NY","10034",40.86673,-73.92106
"1213","TARGET CORPORATION","517 E 117TH ST, New York, NY","10035",40.79547,-73.9318
"1214","PAWAN HOLDINGS INC","139 1ST AVE, New York, NY","10003",40.72799,-73.98524
"1215","E & G GROCERY CORP","51 THAYER ST, New York, NY","10040",40.86303,-73.92665
"1216","MERCADITO DEL CIBAO CORP","3814 BROADWAY, New York, NY","10032",40.83509,-73.94391
"1217","GUDDYS 2 DELI GROCERY CORP","3769 10TH AVE, New York, NY","10034",40.8611,-73.92117
"1218","JOE'S GOURMET DELI INC","920 COLUMBUS AVE, New York, NY","10025",40.79873,-73.96345
"1219","K&N STORES INC","801 AMSTERDAM AVE, New York, NY","10025",40.79614,-73.96862
"1220","381 ELIO'S DELI GROCERY CORP","381 AUDUBON AVE, New York, NY","10033",40.85035,-73.93097
"1221","LUISA MARIE INC","2892 BROADWAY, New York, NY","10025",0,0
"1222","NEW GREEN EMPORIUM CORP","791 8TH AVE, New York, NY","10019",40.76121,-73.98712
"1223","CHHAYA NEWS INC","204 W 35TH ST, New York, NY","10001",40.75167,-73.99042
"1224","CLOUD 69 CONVENIENCE STORE INC","1317 2ND AVE, New York, NY","10021",40.7672,-73.95976
"1225","SANOLA DELI GROCERY CORP","2240 2ND AVE, New York, NY","10035",40.79635,-73.93803
"1226","96 DAN MEAT MARKET INC","96 SHERMAN AVE, New York, NY","10034",40.86394,-73.92548
"1227","NEW EAST WEST GROCERY INC","532 9TH AVE, New York, NY","10018",40.75674,-73.99365
"1228","BROOKLYN FARE GREENWICH LLC","666 GREENWICH ST, New York, NY","10014",40.73262,-74.00772
"1229","EAST 119 GROCERY AND CANDY CORP","2314 1ST AVE, New York, NY","10035",40.79771,-73.93395
"1230","IDEAL DELI & GROCERY CORP","4119 BROADWAY, New York, NY","10033",40.84558,-73.93885
"1231","251 LA BODEGUITA GROCERY CORP","251 E 119TH ST, New York, NY","10035",40.79919,-73.93671
"1232","SHERMAN DELI CORP","25 SHERMAN AVE, New York, NY","10040",40.86255,-73.92831
"1233","NASSAU GROCERY INC","59 NASSAU ST, New York, NY","10038",40.70925,-74.0088
"1234","3 DELI GROCERY CORP","27 W 183RD ST, New York, NY","10453",40.85888,-73.9051
"1235","DAHBASH DELI GROCERY CORP","600 W 188TH ST, New York, NY","10040",40.85376,-73.93099
"1236","191 AVENUE A INC","191 AVE A, New York, NY","10009",40.729,-73.98156
"1237","149 GOURMET DELI INC","781 SAINT NICHOLAS AVE, New York, NY","10031",40.82682,-73.94318
"1238","SHREEJI 315 INC","315 1ST AVE, New York, NY","10003",40.73407,-73.98081
"1239","BEST THIRD AVENUE GOURMET DELI INC","2034 3RD AVE, New York, NY","10029",40.79536,-73.94213
"1240","BT TO GO WTC LLC","185 GREENWICH ST, New York, NY","10007",0,0
"1241","A M DELI JUICE BAR FOOD INC","308 E 116TH ST, New York, NY","10029",40.79661,-73.93725
"1242","GREENLAND DELI AND GROCERY CORP","418 LENOX AVE, New York, NY","10037",40.81136,-73.94254
"1243","3821 FOOD CORP","600 W 160TH STREET, New York, NY","10032",40.83539,-73.94411
"1244","LAGOM DELI INC","216 W 79TH ST, New York, NY","10024",40.78335,-73.97925
"1245","CARIBBEAN FRIEND FOOD CORP","3462 BROADWAY, New York, NY","10031",40.82404,-73.95185
"1246","1932 GROCERY DELI INC","1932 3RD AVE, New York, NY","10029",40.79204,-73.94455
"1247","LALU GROCERY 594 INC","594 596 COLUMBUS AVE, New York, NY","10024",0,0
"1248","DUANE READE INC","185 GREENWICH ST, New York, NY","10007",0,0
"1249","2038 AMSTERDAM GROCERY & TOBACCO INC","2038 AMSTERDAM AVE, New York, NY","10032",40.83553,-73.94031
"1250","NYC BEST GROCERY CORP","260 LENOX AVE, New York, NY","10027",40.80646,-73.94611
"1251","HOLLYLAND MARKET INC","122 SAINT MARKS PL, WEST STORE, New York, NY","10009",40.72688,-73.98385
"1252","TLC TEA HOUSE INC","103 E 2ND ST, New York, NY","10009",40.72361,-73.98748
"1253","NEW YORK GOURMET DELI AND GROCERY CORP","177 WADSWORTH AVE, New York, NY","10033",40.85021,-73.93451
"1254","NEEL KANTH DELI & GROCERY INC","36 AVENUE A, New York, NY","10009",40.72342,-73.98526
"1255","UNION 1 DELI CORP","1734 AMSTERDAM AVE, New York, NY","10031",40.82588,-73.94735
"1256","FRESH SUPERETTE INC","804 W 181ST ST, New York, NY","10033",40.85088,-73.9386
"1257","162 GOURMET DELI CORP","601 W 162ND ST, New York, NY","10032",40.83741,-73.94289
"1258","EVERYDAY CONVENIENT STORE INC","663 10TH AVE, New York, NY","10036",40.76246,-73.99349
"1259","7 ELEVEN INC","1400 5TH AVE, New York, NY","10026",40.80038,-73.9469
"1260","TARGET CORPORATION","255 GREENWICH ST, New York, NY","10007",40.71453,-74.01127
"1261","PENN MARKETPLACE INC","401 8TH AVE, New York, NY","10001",40.74965,-73.99554
"1262","DAWN TO DUSK CONVENIENCE AND SMOKE SHOP INC","401 E 57TH ST, New York, NY","10022",40.75836,-73.96266
"1263","450 9TH DELI CORP","450 9TH AVE, New York, NY","10018",40.75409,-73.99558
"1264","BLP MEAT MARKET CORP","72 CLINTON ST, New York, NY","10002",40.71918,-73.98492
"1265","GOURMET DELI UNITED INC","1469 5TH AVE, New York, NY","10035",40.80227,-73.94506
"1266","DANISH GOURMET INC","721 2ND AVE, New York, NY","10016",40.74776,-73.97394
"1267","175 PRESBYTERIAN DELI CORP","1317 ST NICHOLAS AVE, New York, NY","10033",40.84605,-73.93636
"1268","EAST VILLAGE DELI & GRILL CORP","319 E HOUSTON ST, New York, NY","10002",40.72102,-73.98297
"1269","BHH ENTERPRISE INC","52 RIVINGTON ST, New York, NY","10002",40.72087,-73.9907
"1270","1388 DELI GROCERY INC","1388 1ST AVE, New York, NY","10021",40.76917,-73.95478
"1271","602 WASHINGTON HEIGHTS DELI CORP","602 W 180TH ST, New York, NY","10033",40.84867,-73.93459
"1272","172 DELI GROCERY CORP","1230 SAINT NICHOLAS AVE, New York, NY","10032",40.84325,-73.93808
"1273","TOASTIES DELI CORP","214 7TH AVE, New York, NY","10011",40.74373,-73.99614
"1274","WHOLE FOODS MARKET GROUP INC","1095 6TH AVE, New York, NY","10036",40.75472,-73.98428
"1275","BROADWAY TOBACCO HOUSE INC","2802 BROADWAY, New York, NY","10025",40.80303,-73.96721
"1276","GREEN LEAF DELI INC","574 AMSTERDAM AVE, New York, NY","10024",40.78895,-73.97431
"1277","HEALTHY MARKET PLACE CORP","217 1ST AVE, New York, NY","10003",40.73066,-73.98315
"1278","GREEN AT CANAL CORP, THE","386 CANAL ST, New York, NY","10013",40.72138,-74.00497
"1279","HUDSON FOOD MARKET CORP","312 11TH AVE, New York, NY","10001",40.75302,-74.00377
"1280","PRAMUKH 36 INC","6 W 36TH ST, New York, NY","10018",40.74979,-73.98387
"1281","HUDSON & CHARLES UWS INC","555 AMSTERDAM AVE, New York, NY","10024",40.78817,-73.97458
"1282","77 AVE D GROCERY STORE CORP","77 AVENUE D, New York, NY","10009",40.72265,-73.97696
"1283","ALGANAD INC","160 ORCHARD ST, New York, NY","10002",40.72102,-73.98864
"1284","CHURCH ST DELI & GROCERY INC","200 CHURCH ST, New York, NY","10013",40.71617,-74.00717
"1285","NEW YORKER 888 INC","5309 FORT HAMILTON PKWY, New York, NY","11219",40.63616,-74.00066
"1286","1338 FOOD INC","1338 ST NICHOLAS AVE, New York, NY","10033",40.84669,-73.93557
"1287","KENYA & JADE MEXICAN STORE CORP","2301 1ST AVE, New York, NY","10035",40.79763,-73.93444
"1288","KKSA GROCERY INC","184 186 SHERMAN AVE, New York, NY","10034",0,0
"1289","JIRETH GROCERY CORP","2097 AMSTERDAM AVE, New York, NY","10032",40.83704,-73.93875
"1290","BUENO'S SNACK SHOP INC","645 W 184TH ST, New York, NY","10033",40.85179,-73.93383
"1291","ARPITA DELI & GROCERY INC","179 A CHURCH ST, New York, NY","10007",40.71559,-74.00732
"1292","74 NAGLE DELI GROCERY INC","74 NAGLE AVE, New York, NY","10040",40.86042,-73.92839
"1293","EL MERCADITO FOOD INC","1321 ST NICHOLAS AVE, New York, NY","10033",40.84629,-73.93618
"1294","168 8TH AVENUE FOOD CORP","168 8TH AVE, New York, NY","10011",40.74245,-74.00034
"1295","K & N DELI GROCERY CORP","701A ST NICHOLAS AVE, New York, NY","10031",40.82408,-73.94481
"1296","87 ST DELI INC I","562 AMSTERDAM AVE, New York, NY","10024",40.78854,-73.97461
"1297","CLINTON FRUIT MARKET INC","681 9TH AVE, New York, NY","10036",40.76158,-73.99056
"1298","DEBSRE TRADING INC","1543-45 2ND AVE STORE #4, New York, NY","10075",0,0
"1299","207 TROPICAL SUPERMARKET CORP","534 W 207TH ST, New York, NY","10034",40.8654,-73.91991
"1300","197 8TH AVE DELI CORP","197 8TH AVE, New York, NY","10011",40.74359,-73.99995
"1301","CABRERA CABRERA DELI GROCERY CORP","1253 SAINT NICHOLAS AVE, New York, NY","10032",40.84396,-73.93787
"1302","76 GOURMET DELI INC","1448 1ST AVE, New York, NY","10021",40.76991,-73.95424
"1303","ALEXANDER'S EXPRESS DELI AND GROCERY CORP","561 W 145TH ST, New York, NY","10031",40.82597,-73.94923
"1304","HOMADI FOOD CORP","409 E 116TH ST, New York, NY","10029",40.79589,-73.93475
"1305","J & M FOOD DELI CORP","2015 1ST AVE, New York, NY","10029",40.78823,-73.9413
"1306","GREEN PARK DELI INC","102 W 79TH ST, New York, NY","10024",40.78195,-73.9759
"1307","NUR GROCERY INC","280 E 7TH ST, New York, NY","10009",40.72315,-73.97692
"1308","39 & 9TH GROCERY INC","526 9TH AVE, New York, NY","10018",40.7566,-73.99375
"1309","ALI BABA CONVENIENCE STORE INC","328 E 14TH ST, New York, NY","10003",40.73171,-73.98383
"1310","RU YI GROCERY INC","139 DIVISION ST, New York, NY","10002",40.71443,-73.99098
"1311","207 MEAT CORP","410 W 207TH ST, New York, NY","10034",40.86382,-73.91753
"1312","EL NUEVO RENACER DELI GROCERY CORP","111 AUDUBON AVE, New York, NY","10032",40.84239,-73.9368
"1313","NAMDOR INC","165 E 35TH ST, New York, NY","10016",40.74661,-73.97789
"1314","542 FOOD INC","542 W 207TH ST, New York, NY","10034",40.8656,-73.92004
"1315","KEVIN GROCERY STORE INC","339 E 108TH ST, New York, NY","10029",40.79116,-73.9394
"1316","153 J AND J FOOD MARKET CORP","153 E 99TH ST, New York, NY","10029",40.78777,-73.94921
"1317","TIMES SQUARE FOOD COURT LLC","163 W 48TH ST, New York, NY","10036",40.7597,-73.9836
"1318","LATIN ISLAND INC","2296 1ST AVE, New York, NY","10035",40.79734,-73.93421
"1319","MANHATTAN DELI STORE CORP","57 AUDUBON AVE, New York, NY","10032",40.84056,-73.93813
"1320","SHAN FU STORE INC","1 ESSEX ST, New York, NY","10002",40.71472,-73.99035
"1321","7 ELEVEN INC","600 COLUMBUS AVE, New York, NY","10024",40.78843,-73.97083
"1322","MACOMBS 1 DELI GROCERY INC","67 MACOMBS PL, New York, NY","10039",40.82697,-73.93751
"1323","CHOITHRAMS USA LLC","239 9TH AVE, New York, NY","10001",40.74763,-74.00072
"1324","BROTHERS MINI GROCERY CORP","198 W 134TH ST, New York, NY","10030",40.8144,-73.94391
"1325","EAST SIDE DELI & CONVENIENCE INC","1390 3RD AVE, New York, NY","10075",40.7745,-73.95735
"1326","MAHI K INC","934 AMSTERDAM AVE, New York, NY","10025",40.80035,-73.96599
"1327","QUICK STOP NEW YORK INC","121 MADISON AVE, New York, NY","10016",40.74537,-73.98453
"1328","437 MANHATTAN DELI CORP","437 MANHATTAN AVE, New York, NY","10026",40.80659,-73.95587
"1329","HAMPTONS OF HIGH LINE CORP","244 10TH AVE, New York, NY","10001",40.74845,-74.0034
"1330","DOMINICAN HOOKAH 2 CORP","344 AUDUBON AVE, New York, NY","10033",40.84948,-73.93186
"1331","BEST WAY MINI MARKET CORP","1465 AMSTERDAM AVE, New York, NY","10027",40.81705,-73.95336
"1332","AVE B BEER & CIGAR NYC INC","206 AVENUE B, New York, NY","10009",40.72848,-73.97891
"1333","CROWN GEM GOURMET INC","916 7TH AVE, New York, NY","10019",40.76628,-73.97955
"1334","9TH AVE GOURMET DELI INC","769 9TH AVE, New York, NY","10019",40.76453,-73.98841
"1335","HARLEM RIVER MINI MART & DELI CORP","40 1/2 MACOMBS PL, New York, NY","10039",40.82632,-73.93808
"1336","TWO RIVERS DELI-GROCERY CORP","1948 AMSTERDAM AVE, New York, NY","10032",40.83266,-73.94241
"1337","WHOLE FOODS MARKET GROUP INC","100 W 125TH ST, New York, NY","10027",40.80778,-73.94565
"1338","MARLENE GROCERY CORP","272 SHERMAN AVE, New York, NY","10034",40.86667,-73.91811
"1339","EAST SIDE GROCERY LLC","1422 2ND AVE, New York, NY","10021",40.77019,-73.95712
"1340","AL MUTAZ CANDY AND GROCERY INC","85 AUDUBON AVE -STORE#2, New York, NY","10032",40.84129,-73.93761
"1341","BLOW CONVENIENCE STORE INC","829 9TH AVE, New York, NY","10019",40.76634,-73.98708
"1342","CVS ALBANY LLC","1440 BROADWAY, New York, NY","10018",40.7545,-73.98661
"1343","MOCHA DELI GROCERY CORP","2 E 132ND ST, New York, NY","10037",40.81063,-73.93881
"1344","GATON MINIMARKET CORP","595 ACADEMY ST, New York, NY","10034",40.86415,-73.92342
"1345","7TH AVE ARISTOCRATIC DELI INC","208 W 23RD ST, New York, NY","10011",40.74423,-73.99637
"1346","LOHO GROCERY CORP","37 JAMES ST, New York, NY","10038",40.71201,-73.99881
"1347","CORNER NEWS AND GROCERY INC","618 8TH AVE, New York, NY","10018",40.75578,-73.99064
"1348","323 DELI & GROCERY CORP","323 E 108TH ST, New York, NY","10029",40.79145,-73.94008
"1349","DG 231 FOOD CORP","572-574 W 207TH ST, New York, NY","10034",0,0
"1350","OASIS DELI & GRILL CORP PLUS","814 W 187TH ST, New York, NY","10033",40.85525,-73.93762
"1351","KINGS DELI INC","529 W 179TH ST, New York, NY","10033",40.84757,-73.93339
"1352","NAJI DELI AND GROCERY CORP","2400 7TH AVE, New York, NY","10030",40.81855,-73.94152
"1353","251 DELI DELI LLC","251 6TH AVE, New York, NY","10014",40.72865,-74.0029
"1354","JOSE BRUGAL DELI AND GRILL CORP","126 NAGLE AVE, New York, NY","10040",40.86115,-73.92642
"1355","LA BODEGUITA DELI GROCERY CORP","2236 AMSTERDAM AVE, New York, NY","10032",40.84193,-73.93563
"1356","106 CANDY & CONVENIENCE CORP","232 E 106TH ST, New York, NY","10029",40.79087,-73.94343
"1357","EAST VILLAGE DELI GROCERY CORP","89 AVENUE A, New York, NY","10009",40.7254,-73.98419
"1358","SAMSUL SHIMMO RETAIL MANAGEMENT LLC","201 E 28TH ST, New York, NY","10016",40.64469,-73.95096
"1359","GOURMET EXPRESS INC","652 10TH AVE, New York, NY","10036",40.76201,-73.99351
"1360","JNH PRODUCE INC","236 COLUMBUS AVE, New York, NY","10023",40.77667,-73.97956
"1361","YUMMY FOODS DELI CORP","2445 FREDERICK DOUGLAS BLVD, New York, NY","10027",40.81407,-73.94856
"1362","180 & BROADWAY DELI GROCERY CORP","4234B BROADWAY, New York, NY","10033",40.84941,-73.93643
"1363","NATY FOOD CORP","7 HILLSIDE AVE, New York, NY","10040",40.85891,-73.93078
"1364","70 CEDAR PEARL LLC","70 PINE ST, New York, NY","10005",40.70611,-74.00745
"1365","S NARAYAN INC","219 ELDRIDGE ST, New York, NY","10002",40.72184,-73.9902
"1366","545 KIPS BAY FOOD CORP","545 2ND AVE, New York, NY","10016",40.74248,-73.97779
"1367","JANET FOOD CORP","2630 FREDERICK DOUGLASS BLVD, New York, NY","10030",40.81972,-73.94411
"1368","AQIDAS TRADING INC","38 E 98TH ST, New York, NY","10029",40.78857,-73.95353
"1369","MB BEVERAGES LLC","9 EAST 8TH ST, New York, NY","10003",40.73211,-73.99569
"1370","CVS ALBANY LLC","1-50 50TH AVE, New York, NY","11101",40.74352,-73.95905
"1371","BATTERY PLACE MARKET CORP","77 BATTERY PL, New York, NY","10280",40.70727,-74.01704
"1372","MUNCHIEZ FOOD CORP","967 LENOX RD, New York, NY","11212",40.65633,-73.92342
"1373","A&S GROCERY NY CORP","104 W 145TH ST, New York, NY","10039",40.82051,-73.9368
"1374","BEER FRIDGE LLC","41 ESSEX ST, New York, NY","10002",40.71626,-73.98955
"1375","129 GOURMET DELI & GROCERY CORP","129 E 45TH ST, New York, NY","10017",40.75336,-73.97435
"1376","FENG SHUN INC","47 CATHERINE ST, New York, NY","10038",40.71177,-73.99687
"1377","FRANCHISE GOURMET DELI CORP","370 LENOX AVE, New York, NY","10027",40.81002,-73.94352
"1378","LINDO DESPERTAR GROCERY CORP","202 204 AUDUBON AVE, New York, NY","10033",0,0
"1379","SAXELBY CHEESEMONGERS LLC","75 9TH AVE (CHELSEA MARKET), New York, NY","10011",40.68131,-74.00928
"1380","79 GOURMET DELI INC","1492 YORK AVE, New York, NY","10075",40.77116,-73.95038
"1381","LINCOLN DELI GROCERY INC I","2095 MADISON AVE, New York, NY","10037",40.80999,-73.93735
"1382","MINI MART ON FIRST AVE INC","377 1ST AVE, New York, NY","10010",40.7364,-73.97912
"1383","579 BREAD & BUTTER MARKET CORP","579 MAIN ST, New York, NY","10044",40.76264,-73.9495
"1384","MAHANT 342 INC","342 CANAL ST, New York, NY","10013",40.72029,-74.00344
"1385","PC4WEST INC","4 W 18TH ST, New York, NY","10011",40.73865,-73.9927
"1386","B & B GOURMET MARKET INC","790 LEXINGTON AVE, New York, NY","10065",40.76378,-73.96722
"1387","PRAMUKH 325 INC","325 3RD AVE, New York, NY","10010",40.73966,-73.98232
"1388","SAM DELI & PIZZA CORP","155 8TH AVE, New York, NY","10011",40.74214,-74.001
"1389","165 DELI GROCERY CORP","2119 AMSTERDAM AVE, New York, NY","10032",40.83794,-73.9381
"1390","MAYIMBE GROCERY CORP","200 STANTON ST, New York, NY","10002",40.71982,-73.98289
"1391","EDDY FOOD CENTER CORP","2108 AMSTERDAM AVE, New York, NY","10032",40.83769,-73.93873
"1392","GEN2 ENTERPRISES INC","589 8TH AVE, New York, NY","10018",40.75527,-73.99144
"1393","1544 ST NICHOLAS CANDY STORE CORP","1544 ST NICHOLAS AVE, New York, NY","10040",40.85316,-73.93069
"1394","LA PARADA LATINA FOOD CORP","3822 3RD AVE, New York, NY","10457",40.83784,-73.90126
"1395","GREEN FOOD MARKET CORP","1300 ST NICHOLAS AVE, New York, NY","10033",40.84555,-73.93626
"1396","WADEE CONVENIENCE 4089 INC","4089 BROADWAY, New York, NY","10032",40.84435,-73.93914
"1397","1ST AVE CONVENIENCE & GROCERY INC","400 E 58TH ST, New York, NY","10022",40.75876,-73.96216
"1398","178 JJH INC","178 E 116TH ST, New York, NY","10029",40.79818,-73.94073
"1399","467 STAR DELI INC","467 W 125TH ST, New York, NY","10027",40.81319,-73.95589
"1400","KHALED H ALBISHARI","495 2ND AVE, New York, NY","10016",40.741,-73.97886
"1401","DUANE READE INC","530 5TH AVE, New York, NY","10036",40.75517,-73.97989
"1402","MILLENNIUM CONVENIENCE & GROCERY INC","1737 YORK AVE, New York, NY","10128",40.77909,-73.94505
"1403","EAT FRESH DELI INC","89-97 AVENUE C, New York, NY","10009",40.72353,-73.97932
"1404","TARGET CORPORATION","112 W 34TH ST, New York, NY","10120",40.74999,-73.98865
"1405","HOPS ON 27 INC","113 W 27TH ST, New York, NY","10001",40.74583,-73.99167
"1406","2 BROTHERS DELI 2 INC","2124 DORCHESTER RD, New York, NY","11226",40.64213,-73.95772
"1407","BROTHERS DELI & GROCERY INC, THE","2518 7TH AVE, New York, NY","10039",40.82229,-73.9388
"1408","HARLEM POLO GROUNDS MEAT CORP","159 04 HARLEM RIVER DR, New York, NY","10039",0,0
"1409","GOLD GLOVE DELI AND GROCERY INC","4415 4417 BROADWAY, New York, NY","10040",0,0
"1410","2258 FOOD CORP","2258 3RD AVE, New York, NY","10035",40.80234,-73.93703
"1411","HAMILTON FINEST DELI CORP","3405 BROADWAY, New York, NY","10031",40.82234,-73.95377
"1412","OM SAI UPPER EASTSIDE GROCERY INC","1458 2ND AVE, New York, NY","10021",40.77148,-73.95618
"1413","GGP BAR & GRILL CORP","374 8TH AVE, New York, NY","10001",40.7488,-73.99572
"1414","MOE GOURMET DELI CORP","2911 FREDERICK DOUGLAS BLVD, New York, NY","10039",40.82867,-73.93788
"1415","132 GROCERY AND DELI CORP","132 E 125TH ST, New York, NY","10035",40.80432,-73.93768
"1416","LUNA GROCERY CORP","264 SHERMAN AVE, New York, NY","10034",40.86654,-73.91845
"1417","1272 1278 ST NICHOLAS AVENUE LLC","1272 1278 SAINT NICHOLAS AVE, New York, NY","10033",0,0
"1418","A & S CONV AND SMOKE INC","2282 1/2 BROADWAY, New York, NY","10024",40.78587,-73.97815
